{"type":"FeatureCollection","features":[{"type":"Feature","geometry":{"type":"LineString","coordinates":[[-99.1446539,19.4071781],[-99.144727,19.4071733],[-99.1455692,19.4071461],[-99.1464292,19.407096],[-99.1472214,19.4070409],[-99.1478047,19.4070003],[-99.1480863,19.4069841],[-99.1496604,19.4068835]]},"properties":{"alt_name":"Eje 3 Sur;Eje Vial 3 Sur","bus:lanes:backward":"designated","bus:lanes:forward":"yes|yes|yes|yes|designated","highway":"primary","lanes":"6","lanes:backward":"1","lanes:forward":"5","name":"Avenida Doctor Ignacio Morones Prieto","oneway":"yes","ref":"EJE 3 SUR","short_name":"Dr. Ignacio Morones","surface":"asphalt","id":24700895}},{"type":"Feature","geometry":{"type":"LineString","coordinates":[[-99.1376773,19.4076709],[-99.1386002,19.4076017],[-99.1395627,19.4075296],[-99.140451,19.407463],[-99.1413293,19.4073971],[-99.1422128,19.4073317],[-99.1430082,19.4072717],[-99.1437594,19.407215],[-99.1442049,19.4071838],[-99.1446539,19.4071781]]},"properties":{"alt_name":"Eje 3 Sur;Eje Vial 3 Sur","bus:lanes:backward":"designated","bus:lanes:forward":"yes|yes|yes|yes|designated","highway":"primary","lanes":"6","lanes:backward":"1","lanes:forward":"5","name":"Jos\u00e9 Pe\u00f3n Contreras","oneway":"yes","ref":"EJE 3 SUR","surface":"asphalt","id":24700910}},{"type":"Feature","geometry":{"type":"LineString","coordinates":[[-99.1337767,19.4084914],[-99.1346191,19.4084388],[-99.1349101,19.4084276],[-99.1351158,19.4084074],[-99.1352296,19.4083813],[-99.135341,19.4083391],[-99.135498,19.408241],[-99.1356922,19.4081297],[-99.1357811,19.4080787]]},"properties":{"alt_name":"Eje Vial 3 Sur;Eje 3 Sur","bridge":"yes","foot":"no","highway":"primary","lanes":"3","layer":"1","name":"Calzada Chabacano","oneway":"yes","ref":"EJE 3 SUR","surface":"asphalt","id":24701043}},{"type":"Feature","geometry":{"type":"LineString","coordinates":[[-99.143928,19.414291],[-99.1438445,19.4142837],[-99.1438024,19.4142799],[-99.1412349,19.4140928],[-99.1388103,19.4138838]]},"properties":{"alt_name":"Eje Vial 2A Sur;Eje 2A Sur","highway":"tertiary","lanes":"2","maxspeed":"50","name":"Manuel Payno","oneway":"yes","ref":"EJE 2A SUR","surface":"asphalt","trolley_wire":"yes","id":24702427}},{"type":"Feature","geometry":{"type":"LineString","coordinates":[[-99.1375374,19.4147287],[-99.1366449,19.4146657],[-99.1348828,19.4145413]]},"properties":{"highway":"tertiary","lanes":"2","maxspeed":"50","name":"Manuel Jos\u00e9 Oth\u00f3n","oneway":"yes","surface":"asphalt","id":24702545}},{"type":"Feature","geometry":{"type":"LineString","coordinates":[[-99.1435146,19.4183179],[-99.1435905,19.4183693],[-99.1436542,19.418411],[-99.1442002,19.418769],[-99.1444791,19.418941]]},"properties":{"highway":"tertiary","lanes":"2","name":"Calle Doctor Claudio Bernard","surface":"asphalt","id":24703062}},{"type":"Feature","geometry":{"type":"LineString","coordinates":[[-99.1375374,19.4147287],[-99.1367109,19.4142264]]},"properties":{"alt_name":"Eje Vial 2 Sur;Eje 2 Sur","highway":"tertiary","lanes":"3","name":"Calle Jos\u00e9 Tom\u00e1s Cu\u00e9llar","oneway":"yes","ref":"EJE 2 SUR","surface":"asphalt","trolley_wire":"yes","id":24703064}},{"type":"Feature","geometry":{"type":"LineString","coordinates":[[-99.1435146,19.4183179],[-99.1434525,19.4182822],[-99.1432883,19.4181879],[-99.1422729,19.4176154],[-99.1415137,19.4171426],[-99.1408497,19.4167208]]},"properties":{"highway":"tertiary","lanes":"2","name":"Calle Jos\u00e9 Tom\u00e1s Cu\u00e9llar","surface":"asphalt","id":24703065}},{"type":"Feature","geometry":{"type":"LineString","coordinates":[[-99.1425836,19.418785],[-99.1417151,19.4192011],[-99.1403922,19.4198579],[-99.1401459,19.4199706],[-99.1393555,19.4203462],[-99.138984,19.4205181],[-99.1379719,19.421014]]},"properties":{"highway":"tertiary","lanes":"4","name":"Diagonal 20 de Noviembre","surface":"asphalt","id":24703691}},{"type":"Feature","geometry":{"type":"LineString","coordinates":[[-99.1435748,19.4177242],[-99.1435046,19.4177191],[-99.1422729,19.4176154],[-99.1407362,19.4175186],[-99.1395206,19.4174157],[-99.1384044,19.4173212],[-99.1362694,19.4171466],[-99.1344969,19.4170216]]},"properties":{"highway":"residential","lanes":"2","name":"Calle Alfredo Chavero","oneway":"yes","surface":"asphalt","id":24703954}},{"type":"Feature","geometry":{"type":"LineString","coordinates":[[-99.1444791,19.418941],[-99.1458698,19.4190773],[-99.1474647,19.4192064]]},"properties":{"highway":"secondary","lanes":"2","name":"Calle Doctor Ildelfonso Velasco","oneway":"yes","surface":"asphalt","id":24703972}},{"type":"Feature","geometry":{"type":"LineString","coordinates":[[-99.1434265,19.4159389],[-99.1417613,19.4158024],[-99.1410017,19.4157402],[-99.1389017,19.4155634],[-99.1386161,19.4155336],[-99.1365388,19.4153581],[-99.1348345,19.4152053],[-99.1347776,19.4152004]]},"properties":{"highway":"residential","lanes":"2","name":"Calle Manuel Guti\u00e9rrez N\u00e1jera","oneway":"yes","surface":"asphalt","id":24704315}},{"type":"Feature","geometry":{"type":"LineString","coordinates":[[-99.1350715,19.4133289],[-99.1365809,19.41421],[-99.1367021,19.4142853]]},"properties":{"fixme":"oneway","highway":"residential","maxspeed":"50","oneway":"yes","surface":"asphalt","id":24704328}},{"type":"Feature","geometry":{"type":"LineString","coordinates":[[-99.1351996,19.4133233],[-99.1350295,19.41326],[-99.1349042,19.413232],[-99.134769,19.4132274]]},"properties":{"alt_name":"Eje Vial 2 Sur;Eje 2 Sur","bus:lanes":"designated||","foot":"no","highway":"tertiary","lanes":"3","layer":"-1","name":"Calle Jos\u00e9 Tom\u00e1s Cu\u00e9llar","oneway":"yes","ref":"EJE 2 SUR","surface":"asphalt","trolley_wire":"yes","tunnel":"yes","id":24704403}},{"type":"Feature","geometry":{"type":"LineString","coordinates":[[-99.1397636,19.4243142],[-99.139772,19.4242555],[-99.139876,19.4235309],[-99.1399158,19.4232537],[-99.1400252,19.4223959],[-99.1400439,19.4222596],[-99.1401262,19.4216587],[-99.1401851,19.4212291],[-99.1403115,19.4203921]]},"properties":{"highway":"tertiary","lanes":"2","name":"Calle Sim\u00f3n Bol\u00edvar","oneway":"yes","surface":"asphalt","id":24713397}},{"type":"Feature","geometry":{"type":"LineString","coordinates":[[-99.148512,19.4042241],[-99.1484629,19.4047271],[-99.1483119,19.405695],[-99.1480863,19.4069841],[-99.1479681,19.4076882],[-99.1478742,19.4082465]]},"properties":{"highway":"residential","lanes":"2","name":"Calle Doctor Agust\u00edn Andrade","oneway":"yes","surface":"asphalt","id":24734334}},{"type":"Feature","geometry":{"type":"LineString","coordinates":[[-99.1454431,19.4080011],[-99.1454778,19.4077707]]},"properties":{"highway":"service","name":"Calle Doctor Roberto Sol\u00eds Quiroga","id":24734849}},{"type":"Feature","geometry":{"type":"LineString","coordinates":[[-99.1437594,19.407215],[-99.1437886,19.4068595],[-99.1439725,19.4054852],[-99.1441541,19.4040115]]},"properties":{"highway":"residential","lanes":"2","name":"Calle Enrique Granados","oneway":"no","surface":"asphalt","id":24734945}},{"type":"Feature","geometry":{"type":"LineString","coordinates":[[-99.1434106,19.4039699],[-99.1432417,19.4054034],[-99.1430705,19.4067727],[-99.1430082,19.4072717]]},"properties":{"highway":"residential","lanes":"2","name":"Calle Manuel Navarrete","oneway":"yes","surface":"asphalt","id":24734959}},{"type":"Feature","geometry":{"type":"LineString","coordinates":[[-99.1413293,19.4073971],[-99.1414298,19.4065745],[-99.1416096,19.4052205],[-99.1417718,19.4038859]]},"properties":{"highway":"residential","lanes":"2","name":"Calle Jos\u00e9 Mar\u00eda Bustillos","oneway":"no","surface":"asphalt","id":24734993}},{"type":"Feature","geometry":{"type":"LineString","coordinates":[[-99.1409102,19.4038328],[-99.1407469,19.4051239],[-99.1405765,19.4064714],[-99.140451,19.407463]]},"properties":{"highway":"residential","lanes":"2","name":"Calle Antonio Plaza","surface":"asphalt","id":24735000}},{"type":"Feature","geometry":{"type":"LineString","coordinates":[[-99.1391278,19.4037511],[-99.1389601,19.4049237],[-99.1387905,19.4062556],[-99.1386002,19.4076017]]},"properties":{"highway":"residential","lanes":"1","name":"Calle Bernardo Cuoto","oneway":"yes","surface":"asphalt","id":24735056}},{"type":"Feature","geometry":{"type":"LineString","coordinates":[[-99.1441588,19.4084867],[-99.1420576,19.408463],[-99.1394535,19.4084336],[-99.1375757,19.4084005],[-99.1358809,19.4083672]]},"properties":{"highway":"residential","lanes":"2","name":"Calle Fray Juan de Torquemada","oneway":"yes","surface":"asphalt","id":24736305}},{"type":"Feature","geometry":{"type":"LineString","coordinates":[[-99.1512023,19.4080223],[-99.1505481,19.4080633],[-99.1495365,19.4081267]]},"properties":{"highway":"residential","lanes":"2","name":"Calle Doctor Federico G\u00f3mez Ugarte Santos","oneway":"yes","surface":"asphalt","id":24736306}},{"type":"Feature","geometry":{"type":"LineString","coordinates":[[-99.135749,19.4095243],[-99.1374097,19.4095852],[-99.1393083,19.4096556],[-99.1418629,19.4097724],[-99.1443816,19.409855]]},"properties":{"highway":"residential","lanes":"2","maxspeed":"40","name":"Calle Antonio de Sol\u00eds","oneway":"yes","surface":"asphalt","id":24736389}},{"type":"Feature","geometry":{"type":"LineString","coordinates":[[-99.1441623,19.4119686],[-99.1440967,19.4119639],[-99.1415673,19.4117722],[-99.1390784,19.4116018],[-99.1385815,19.4115663],[-99.1371197,19.4114618],[-99.1353811,19.4113408]]},"properties":{"highway":"residential","lanes":"2","name":"Calle Jos\u00e9 Mar\u00eda Roa B\u00e1rcenas","oneway":"yes","surface":"asphalt","id":24736421}},{"type":"Feature","geometry":{"type":"LineString","coordinates":[[-99.1497692,19.4123583],[-99.1495372,19.4123407],[-99.1487928,19.4122847]]},"properties":{"highway":"residential","lanes":"2","name":"Calle Doctor Dur\u00e1n","oneway":"yes","surface":"asphalt","id":24736422}},{"type":"Feature","geometry":{"type":"LineString","coordinates":[[-99.1438816,19.4147282],[-99.143959,19.4147334],[-99.1451323,19.4148132]]},"properties":{"highway":"residential","name":"Calle Doctor Salvador Aceves","oneway":"yes","surface":"asphalt","id":24736457}},{"type":"Feature","geometry":{"type":"LineString","coordinates":[[-99.1441013,19.4125988],[-99.1440242,19.4125932],[-99.1414775,19.412425],[-99.1390014,19.4122549],[-99.1385318,19.4122161],[-99.1370267,19.4120919]]},"properties":{"highway":"residential","name":"Calle Efr\u00e9n Rebolledo","oneway":"yes","surface":"asphalt","id":24736460}},{"type":"Feature","geometry":{"type":"LineString","coordinates":[[-99.1369939,19.4123143],[-99.1368981,19.4123083],[-99.1364837,19.4122804],[-99.1352511,19.4121753]]},"properties":{"highway":"residential","lanes":"2","name":"Calle Jos\u00e9 Joaqu\u00edn Pesado","oneway":"yes","surface":"asphalt","id":24736462}},{"type":"Feature","geometry":{"type":"LineString","coordinates":[[-99.1370537,19.4119082],[-99.1353135,19.4117748]]},"properties":{"highway":"residential","name":"Calle Severo Amador","surface":"asphalt","id":24736467}},{"type":"Feature","geometry":{"type":"LineString","coordinates":[[-99.1450908,19.4109355],[-99.1449818,19.4120193]]},"properties":{"highway":"residential","name":"Privada Doctor Dur\u00e1n","surface":"concrete","id":24736478}},{"type":"Feature","geometry":{"type":"LineString","coordinates":[[-99.1354637,19.4108099],[-99.1371999,19.4109481],[-99.1391355,19.4110777],[-99.1416454,19.4112476],[-99.1441446,19.4114172],[-99.1442195,19.4114227]]},"properties":{"highway":"residential","name":"Calle Francisco Olaguibel","oneway":"yes","surface":"asphalt","id":24736613}},{"type":"Feature","geometry":{"type":"LineString","coordinates":[[-99.1473542,19.4082907],[-99.1472811,19.4090294],[-99.1472423,19.409453],[-99.1472033,19.4098913]]},"properties":{"highway":"residential","name":"Calle Bolivia","surface":"asphalt","id":24736767}},{"type":"Feature","geometry":{"type":"LineString","coordinates":[[-99.1472811,19.4090294],[-99.1468817,19.4090691],[-99.1461007,19.4091193],[-99.1453112,19.4091509],[-99.1445158,19.4091703],[-99.1444464,19.4091668]]},"properties":{"highway":"residential","lanes":"2","name":"Calle Doctor Neva","oneway":"yes","surface":"asphalt","id":24736772}},{"type":"Feature","geometry":{"type":"LineString","coordinates":[[-99.1443816,19.409855],[-99.1444428,19.4098564],[-99.1452148,19.4098655],[-99.1459769,19.4098745],[-99.1467452,19.409885],[-99.1472033,19.4098913],[-99.1475838,19.4099],[-99.1481021,19.4099018],[-99.1485933,19.4099035],[-99.1491198,19.4099055]]},"properties":{"highway":"residential","lanes":"2","name":"Calle Doctor Rafa\u00e9l Norma","oneway":"yes","surface":"asphalt","id":24736783}},{"type":"Feature","geometry":{"type":"LineString","coordinates":[[-99.145777,19.4084574],[-99.1457863,19.4083968],[-99.1458379,19.4081225]]},"properties":{"highway":"residential","name":"Cerrada G\u00f3mez Santos","surface":"concrete","id":24736816}},{"type":"Feature","geometry":{"type":"LineString","coordinates":[[-99.1467452,19.409885],[-99.1468817,19.4090691],[-99.1469112,19.4087309],[-99.1469158,19.4085605],[-99.1468922,19.4083152]]},"properties":{"highway":"residential","name":"Calle Doctor Alvear N\u00fa\u00f1ez","surface":"asphalt","id":24736836}},{"type":"Feature","geometry":{"type":"LineString","coordinates":[[-99.1485933,19.4099035],[-99.1487256,19.4090837],[-99.1487132,19.4090378]]},"properties":{"highway":"residential","name":"Cerrada Doctor Rafa\u00e9l Norma","surface":"asphalt","id":24736855}},{"type":"Feature","geometry":{"type":"LineString","coordinates":[[-99.1481434,19.4096269],[-99.147645,19.4095458],[-99.1472423,19.409453]]},"properties":{"highway":"residential","name":"Calle Venezuela","surface":"asphalt","id":24736874}},{"type":"Feature","geometry":{"type":"LineString","coordinates":[[-99.1408497,19.4167208],[-99.1435819,19.4169192],[-99.1436574,19.416925]]},"properties":{"highway":"residential","lanes":"2","name":"Calle Manuel M. Flores","oneway":"yes","surface":"asphalt","id":24738368}},{"type":"Feature","geometry":{"type":"LineString","coordinates":[[-99.1436574,19.416925],[-99.1437355,19.416931],[-99.1447927,19.4170073],[-99.1462201,19.4171087],[-99.1464883,19.4171501],[-99.1466305,19.4171653],[-99.1478053,19.4172599]]},"properties":{"highway":"residential","lanes":"2","name":"Calle Doctor Jos\u00e9 Pablo Mart\u00ednez del R\u00edo","oneway":"yes","surface":"asphalt","id":24738369}},{"type":"Feature","geometry":{"type":"LineString","coordinates":[[-99.1430826,19.4202803],[-99.1419931,19.4201637],[-99.1403723,19.4199898],[-99.1401459,19.4199706],[-99.1398938,19.4199485],[-99.1394836,19.4199127],[-99.1394391,19.4199088],[-99.1390507,19.4198748],[-99.1386516,19.41984],[-99.1381116,19.4197928],[-99.1369818,19.4196704],[-99.1359023,19.4195536],[-99.1341255,19.419373]]},"properties":{"highway":"residential","lanes":"2","name":"Calle Fernando de Alva Ixtlilx\u00f3chitl","oneway":"yes","surface":"asphalt","id":24738592}},{"type":"Feature","geometry":{"type":"LineString","coordinates":[[-99.1418512,19.4213792],[-99.1419218,19.4207736],[-99.1419931,19.4201637]]},"properties":{"highway":"residential","name":"Calle Juan de la Fuente","surface":"asphalt","id":24738692}},{"type":"Feature","geometry":{"type":"LineString","coordinates":[[-99.1381965,19.4190766],[-99.1370889,19.4189841],[-99.1360047,19.418877],[-99.134232,19.41871]]},"properties":{"highway":"residential","name":"Calle Antonio Le\u00f3n y Gama","oneway":"yes","surface":"asphalt","id":24738736}},{"type":"Feature","geometry":{"type":"LineString","coordinates":[[-99.1390507,19.4198748],[-99.1391932,19.4184698]]},"properties":{"highway":"residential","name":"Calle Mayas","surface":"asphalt","id":24738925}},{"type":"Feature","geometry":{"type":"LineString","coordinates":[[-99.1386516,19.41984],[-99.1388046,19.4184337]]},"properties":{"highway":"residential","name":"Calle Otomies","surface":"asphalt","id":24738926}},{"type":"Feature","geometry":{"type":"LineString","coordinates":[[-99.1369818,19.4196704],[-99.1370889,19.4189841]]},"properties":{"highway":"residential","name":"Cerrada Fernando Alba I.","id":24738927}},{"type":"Feature","geometry":{"type":"LineString","coordinates":[[-99.1360909,19.4136937],[-99.1359952,19.4136844],[-99.1358994,19.4136608],[-99.1358084,19.4136109],[-99.1352078,19.4132386]]},"properties":{"alt_name":"Eje Vial 2A Sur;Eje 2A Sur","foot":"no","highway":"tertiary","lanes":"2","maxspeed":"50","name":"Calle Jos\u00e9 Tom\u00e1s Cu\u00e9llar","oneway":"yes","ref":"EJE 2A SUR","surface":"asphalt","trolley_wire":"yes","id":24894760}},{"type":"Feature","geometry":{"type":"LineString","coordinates":[[-99.1352078,19.4132386],[-99.1347899,19.4130892]]},"properties":{"alt_name":"Eje Vial 2A Sur;Eje 2A Sur","foot":"no","highway":"tertiary","lanes":"2","layer":"-1","name":"Calle Jos\u00e9 Tom\u00e1s Cu\u00e9llar","oneway":"yes","ref":"EJE 2A SUR","surface":"asphalt","trolley_wire":"yes","tunnel":"yes","id":24894765}},{"type":"Feature","geometry":{"type":"LineString","coordinates":[[-99.1288748,19.406436],[-99.1293687,19.4064894],[-99.1298386,19.4065403],[-99.1303034,19.4065906],[-99.130746,19.4066385],[-99.1311737,19.4066848],[-99.1316543,19.4067368],[-99.132102,19.4067853],[-99.1325041,19.4068288],[-99.1328884,19.4068704],[-99.1332178,19.4069061],[-99.1332923,19.4069142],[-99.1334091,19.4069268],[-99.1337632,19.4069651],[-99.1342734,19.4070204],[-99.1347793,19.4070751],[-99.1352676,19.407128],[-99.1358206,19.407193]]},"properties":{"highway":"residential","name":"Calle Gumersindo Esquer","oneway":"yes","surface":"asphalt","id":25154406}},{"type":"Feature","geometry":{"type":"LineString","coordinates":[[-99.1343309,19.4180823],[-99.1343857,19.4180862],[-99.1358909,19.4182201],[-99.1359722,19.4182146],[-99.1361259,19.4181768]]},"properties":{"highway":"residential","name":"Calle Lorenzo Boturini","oneway":"yes","surface":"asphalt","id":25154435}},{"type":"Feature","geometry":{"type":"LineString","coordinates":[[-99.1343604,19.4178812],[-99.1357783,19.4180191],[-99.1358614,19.4180481],[-99.1359513,19.418098]]},"properties":{"highway":"residential","name":"Calle Lorenzo Boturini","oneway":"yes","surface":"asphalt","id":25154437}},{"type":"Feature","geometry":{"type":"LineString","coordinates":[[-99.140795,19.4171049],[-99.1384523,19.4169162],[-99.1363344,19.4167295]]},"properties":{"bicycle":"yes","cycleway":"no","foot":"yes","highway":"residential","name":"Calle Juan Lucas de Lassaga","oneway":"yes","sidewalk":"both","surface":"asphalt","id":25154445}},{"type":"Feature","geometry":{"type":"LineString","coordinates":[[-99.1436141,19.4173438],[-99.1435414,19.4173379],[-99.1415137,19.4171426]]},"properties":{"highway":"residential","name":"Porfirio Parra","surface":"asphalt","id":25154447}},{"type":"Feature","geometry":{"type":"LineString","coordinates":[[-99.1347054,19.4156841],[-99.1364657,19.4158337],[-99.1385605,19.4160032],[-99.139782,19.4161062]]},"properties":{"highway":"residential","name":"Calle Jos\u00e9 Joaqu\u00edn Arriaga","oneway":"yes","surface":"asphalt","id":25154449}},{"type":"Feature","geometry":{"type":"LineString","coordinates":[[-99.141049,19.4153621],[-99.1437203,19.4155692],[-99.1437931,19.4155748]]},"properties":{"highway":"residential","name":"Calle Francisco Rivas","oneway":"yes","surface":"asphalt","id":25154450}},{"type":"Feature","geometry":{"type":"LineString","coordinates":[[-99.1472721,19.4116039],[-99.1456955,19.4115247]]},"properties":{"highway":"residential","name":"Calle Doctor Miguel Silva","surface":"asphalt","id":25154467}},{"type":"Feature","geometry":{"type":"LineString","coordinates":[[-99.1495372,19.4123407],[-99.1496545,19.4112204]]},"properties":{"highway":"residential","name":"Cerrada Doctor Dur\u00e1n","oneway":"yes","surface":"asphalt","id":25154493}},{"type":"Feature","geometry":{"type":"LineString","coordinates":[[-99.1492913,19.4135921],[-99.1490946,19.414675]]},"properties":{"highway":"residential","lit":"yes","name":"Calle Doctor Fernando Z\u00e1rraga","oneway":"yes","surface":"asphalt","id":25154497}},{"type":"Feature","geometry":{"type":"LineString","coordinates":[[-99.1336519,19.4085005],[-99.1336986,19.4085542],[-99.1337611,19.4085829],[-99.1338356,19.4085893],[-99.1340032,19.4085837],[-99.1345338,19.4085537],[-99.1350499,19.4085222],[-99.1352779,19.4084953],[-99.1353658,19.4084866],[-99.135423,19.4084894],[-99.1354666,19.4085236],[-99.1355055,19.4086398]]},"properties":{"highway":"residential","name":"Calzada Chabacano","oneway":"yes","surface":"asphalt","id":25154587}},{"type":"Feature","geometry":{"type":"LineString","coordinates":[[-99.1361259,19.4181768],[-99.1382784,19.4183848],[-99.1388046,19.4184337],[-99.1391932,19.4184698],[-99.1394217,19.4184911],[-99.1396341,19.4185108],[-99.1400663,19.418551],[-99.1405825,19.4185989],[-99.1425836,19.418785],[-99.1432816,19.4188393],[-99.1433946,19.4188536],[-99.1434592,19.4188598]]},"properties":{"highway":"secondary","lanes":"4","name":"Calle Lorenzo Boturini","oneway":"yes","surface":"asphalt","id":25154589}},{"type":"Feature","geometry":{"type":"LineString","coordinates":[[-99.1350695,19.4083197],[-99.1351266,19.4079598],[-99.1352676,19.407128],[-99.1354412,19.4059841]]},"properties":{"highway":"residential","name":"Calle Juan de Dios Arias","oneway":"yes","surface":"asphalt","id":25154598}},{"type":"Feature","geometry":{"type":"LineString","coordinates":[[-99.1358894,19.4081718],[-99.1359486,19.4080987],[-99.1360126,19.4080367],[-99.1361008,19.4079817],[-99.1361903,19.4079348],[-99.136316,19.4078905],[-99.136426,19.4078701],[-99.136536,19.4078479],[-99.1367618,19.4078186],[-99.1376655,19.4077513]]},"properties":{"highway":"residential","name":"Jos\u00e9 Pe\u00f3n Contreras","oneway":"yes","surface":"asphalt","id":25154605}},{"type":"Feature","geometry":{"type":"LineString","coordinates":[[-99.1368622,19.4076419],[-99.1376872,19.4075955]]},"properties":{"highway":"pedestrian","id":25154608}},{"type":"Feature","geometry":{"type":"LineString","coordinates":[[-99.140059,19.4037881],[-99.1398949,19.4050284],[-99.1397177,19.4063677],[-99.1395925,19.4072901],[-99.1395627,19.4075296]]},"properties":{"highway":"tertiary","lanes":"2","name":"Calle Isabel la Cat\u00f3lica","oneway":"yes","surface":"asphalt","id":39543399}},{"type":"Feature","geometry":{"type":"LineString","coordinates":[[-99.1368622,19.4076419],[-99.1367972,19.4076457],[-99.1366129,19.4076566],[-99.1364569,19.407675],[-99.1362256,19.4077173],[-99.1360985,19.4077677],[-99.1360699,19.4077727],[-99.1360337,19.4077704],[-99.1360019,19.407756],[-99.1359738,19.407735],[-99.1359304,19.4076404]]},"properties":{"highway":"residential","name":"Jos\u00e9 Pe\u00f3n Contreras","oneway":"yes","surface":"asphalt","id":71889107}},{"type":"Feature","geometry":{"type":"LineString","coordinates":[[-99.138984,19.4205181],[-99.1380397,19.4203919]]},"properties":{"highway":"residential","name":"Calle Victoriano Salado \u00c1lvarez","oneway":"yes","surface":"asphalt","id":81542816}},{"type":"Feature","geometry":{"type":"LineString","coordinates":[[-99.1459291,19.4041484],[-99.1458541,19.4047263],[-99.1458429,19.4048512],[-99.1457333,19.4056327],[-99.1455692,19.4071461],[-99.1454778,19.4077707]]},"properties":{"highway":"residential","lanes":"2","name":"Calle Doctor Roberto Sol\u00eds Quiroga","oneway":"yes","surface":"asphalt","id":157371388}},{"type":"Feature","geometry":{"type":"LineString","coordinates":[[-99.1359304,19.4076404],[-99.1360317,19.4076557]]},"properties":{"highway":"footway","id":217341589}},{"type":"Feature","geometry":{"type":"LineString","coordinates":[[-99.1354189,19.4116638],[-99.1350257,19.4116051]]},"properties":{"bridge":"yes","highway":"footway","layer":"1","id":217341591}},{"type":"Feature","geometry":{"type":"LineString","coordinates":[[-99.1367748,19.4137366],[-99.1365609,19.4136844],[-99.1360899,19.4136557],[-99.1360018,19.4136347],[-99.1359331,19.4136152],[-99.1358796,19.4135886],[-99.1352315,19.4131908],[-99.1351019,19.4131335]]},"properties":{"highway":"residential","maxspeed":"50","oneway":"yes","surface":"asphalt","id":222223640}},{"type":"Feature","geometry":{"type":"LineString","coordinates":[[-99.1359624,19.4090738],[-99.13531,19.4089722],[-99.1345481,19.4088535],[-99.1341862,19.4087971]]},"properties":{"bridge":"yes","highway":"footway","layer":"1","id":226520863}},{"type":"Feature","geometry":{"type":"LineString","coordinates":[[-99.1367109,19.4142264],[-99.1351996,19.4133233]]},"properties":{"alt_name":"Eje Vial 2 Sur;Eje 2 Sur","bus:lanes":"designated||","foot":"no","highway":"tertiary","lanes":"3","maxspeed":"50","name":"Calle Jos\u00e9 Tom\u00e1s Cu\u00e9llar","oneway":"yes","ref":"EJE 2 SUR","surface":"asphalt","trolley_wire":"yes","id":226522247}},{"type":"Feature","geometry":{"type":"LineString","coordinates":[[-99.1351509,19.4131369],[-99.135161,19.4130487]]},"properties":{"highway":"footway","id":226522249}},{"type":"Feature","geometry":{"type":"LineString","coordinates":[[-99.1359624,19.4090738],[-99.1359496,19.409098],[-99.1358536,19.4090835]]},"properties":{"highway":"steps","id":226522250}},{"type":"Feature","geometry":{"type":"LineString","coordinates":[[-99.135415,19.4090165],[-99.1353649,19.4090095],[-99.1353031,19.4089984],[-99.13531,19.4089722]]},"properties":{"highway":"steps","id":226522252}},{"type":"Feature","geometry":{"type":"LineString","coordinates":[[-99.1367748,19.4137366],[-99.1360909,19.4136937]]},"properties":{"alt_name":"Eje Vial 2A Sur;Eje 2A Sur","foot":"no","highway":"tertiary","lanes":"2","name":"Calle Jos\u00e9 Tom\u00e1s Cu\u00e9llar","oneway":"yes","ref":"EJE 2A SUR","surface":"asphalt","trolley_wire":"yes","id":226522254}},{"type":"Feature","geometry":{"type":"LineString","coordinates":[[-99.1354189,19.4116638],[-99.1354152,19.4117081]]},"properties":{"highway":"steps","id":226522256}},{"type":"Feature","geometry":{"type":"LineString","coordinates":[[-99.1354085,19.4087686],[-99.1354027,19.4087932]]},"properties":{"highway":"steps","id":226529201}},{"type":"Feature","geometry":{"type":"LineString","coordinates":[[-99.1362885,19.4043282],[-99.1362591,19.4044884],[-99.1362405,19.4045896],[-99.1361299,19.4052751],[-99.1361199,19.4053372],[-99.1360035,19.4060593],[-99.135988,19.4061553],[-99.1358206,19.407193],[-99.1357542,19.4076281],[-99.1357079,19.407881],[-99.1356784,19.408028],[-99.1355918,19.4083467],[-99.1355055,19.4086398],[-99.1354554,19.4088015],[-99.135415,19.4090165],[-99.1353952,19.4092132],[-99.1353843,19.4094941],[-99.1353713,19.4098616],[-99.1353293,19.4102743],[-99.1351678,19.4113349],[-99.1351289,19.4115908],[-99.135032,19.4122017],[-99.1349338,19.4128203],[-99.1349193,19.4129119],[-99.1348928,19.4130787],[-99.1348601,19.4132849],[-99.1348246,19.4135084],[-99.1347735,19.4138303],[-99.134743,19.4140228],[-99.1346555,19.414574],[-99.1346369,19.4146906],[-99.1345557,19.4152027],[-99.1345324,19.4153494],[-99.1343338,19.4165944],[-99.134319,19.4166937],[-99.1342471,19.4171471],[-99.1341344,19.4178571],[-99.1341026,19.4180574],[-99.134087,19.4181646],[-99.1339576,19.4190539],[-99.1339163,19.4193384]]},"properties":{"bus:lanes":"|||designated","foot":"yes","highway":"trunk","lanes":"4","name":"Calzada San Antonio Abad","oneway":"yes","surface":"asphalt","id":226529202}},{"type":"Feature","geometry":{"type":"LineString","coordinates":[[-99.1438364,19.4151706],[-99.143757,19.415165],[-99.1437191,19.4151623],[-99.1411734,19.4149838],[-99.1411041,19.4149789],[-99.1387007,19.4148103],[-99.1375374,19.4147287]]},"properties":{"alt_name":"Eje Vial 2 Sur;Eje 2 Sur","bicycle":"yes","highway":"tertiary","lanes":"2","maxspeed":"50","name":"Manuel Jos\u00e9 Oth\u00f3n","oneway":"yes","ref":"EJE 2 SUR","surface":"asphalt","trolley_wire":"yes","id":342785686}},{"type":"Feature","geometry":{"type":"LineString","coordinates":[[-99.1394836,19.4199127],[-99.1396341,19.4185108]]},"properties":{"highway":"residential","name":"Calle Refugio Barrag\u00e1n de Toscano","surface":"concrete","id":428493890}},{"type":"Feature","geometry":{"type":"LineString","coordinates":[[-99.1398938,19.4199485],[-99.1400663,19.418551]]},"properties":{"highway":"residential","name":"Calle Montiel","surface":"asphalt","id":428493891}},{"type":"Feature","geometry":{"type":"LineString","coordinates":[[-99.1393555,19.4203462],[-99.1394391,19.4199088]]},"properties":{"highway":"residential","name":"Calle Cadena","oneway":"yes","surface":"asphalt","id":456118073}},{"type":"Feature","geometry":{"type":"LineString","coordinates":[[-99.1356784,19.408028],[-99.1353994,19.4082048],[-99.1352793,19.4082607],[-99.1351711,19.4082982],[-99.1350695,19.4083197],[-99.1345796,19.4083519],[-99.1345916,19.4082382]]},"properties":{"highway":"residential","name":"Calzada Chabacano","oneway":"yes","surface":"asphalt","id":456118074}},{"type":"Feature","geometry":{"type":"LineString","coordinates":[[-99.1472214,19.4070409],[-99.1471621,19.4075977],[-99.1471382,19.4076617],[-99.147101,19.4077209],[-99.1470615,19.4077823],[-99.14705,19.407849],[-99.1470686,19.4083058]]},"properties":{"highway":"residential","name":"Calle Doctor Alvear N\u00fa\u00f1ez","surface":"asphalt","id":456118081}},{"type":"Feature","geometry":{"type":"LineString","coordinates":[[-99.1471693,19.4121484],[-99.1455911,19.4120565],[-99.1449818,19.4120193],[-99.144237,19.4119738],[-99.1441623,19.4119686]]},"properties":{"highway":"residential","name":"Calle Doctor Dur\u00e1n","oneway":"yes","surface":"asphalt","id":456118082}},{"type":"Feature","geometry":{"type":"LineString","coordinates":[[-99.148558,19.4124313],[-99.1486269,19.4120583],[-99.1484847,19.4121385],[-99.1474265,19.4120719],[-99.1473713,19.4120281],[-99.1473204,19.4119721],[-99.1472443,19.4123404],[-99.1473253,19.4122812],[-99.1484622,19.4123402],[-99.148558,19.4124313]]},"properties":{"area":"yes","highway":"pedestrian","name":"Doctor Dur\u00e1n","id":456118085}},{"type":"Feature","geometry":{"type":"LineString","coordinates":[[-99.1395206,19.4174157],[-99.1394764,19.4177547]]},"properties":{"highway":"residential","name":"Calle Guadalupe Pe\u00f1afiel","id":456118089}},{"type":"Feature","geometry":{"type":"LineString","coordinates":[[-99.1394217,19.4184911],[-99.1394607,19.4181178]]},"properties":{"highway":"residential","name":"Calle Guadalupe Pe\u00f1afiel","id":456118090}},{"type":"Feature","geometry":{"type":"LineString","coordinates":[[-99.1437886,19.4068595],[-99.1430705,19.4067727],[-99.1422991,19.4066795],[-99.1414298,19.4065745],[-99.1405765,19.4064714],[-99.1397177,19.4063677],[-99.1387905,19.4062556],[-99.1380715,19.4061687],[-99.1378778,19.4061454],[-99.1370697,19.4060478],[-99.1362084,19.4059437]]},"properties":{"highway":"residential","lanes":"2","name":"Calle Juan E. Hern\u00e1ndez y D\u00e1valos","oneway":"yes","surface":"asphalt","id":456118094}},{"type":"Feature","geometry":{"type":"LineString","coordinates":[[-99.1345536,19.4179606],[-99.1359513,19.418098]]},"properties":{"highway":"secondary","lanes":"2","name":"Calle Lorenzo Boturini","oneway":"yes","surface":"asphalt","id":456118096}},{"type":"Feature","geometry":{"type":"LineString","coordinates":[[-99.1481021,19.4099018],[-99.1479487,19.4110868]]},"properties":{"highway":"residential","lanes":"1","name":"Cerrada Panam\u00e1","surface":"asphalt","id":456118098}},{"type":"Feature","geometry":{"type":"LineString","coordinates":[[-99.1482592,19.4090852],[-99.1482318,19.4091299],[-99.1481434,19.4096269],[-99.1481021,19.4099018]]},"properties":{"highway":"residential","name":"Calle Panam\u00e1","surface":"asphalt","id":456118099}},{"type":"Feature","geometry":{"type":"LineString","coordinates":[[-99.1472033,19.4098913],[-99.147161,19.4104557]]},"properties":{"highway":"residential","name":"Privada Bolivia","id":456118102}},{"type":"Feature","geometry":{"type":"LineString","coordinates":[[-99.138342,19.4178476],[-99.1361902,19.4176704],[-99.1344192,19.4175119]]},"properties":{"highway":"residential","name":"Calle Rafa\u00e9l \u00c1ngel de la Pe\u00f1a","oneway":"yes","surface":"asphalt","id":456118103}},{"type":"Feature","geometry":{"type":"LineString","coordinates":[[-99.1479099,19.4047249],[-99.1478637,19.4056824],[-99.1478047,19.4070003]]},"properties":{"highway":"residential","name":"Calle Renacimiento","surface":"asphalt","id":456118104}},{"type":"Feature","geometry":{"type":"LineString","coordinates":[[-99.1438518,19.4070362],[-99.1439107,19.4067583],[-99.1445235,19.4068213],[-99.1445092,19.406933],[-99.144496,19.4070362],[-99.1444349,19.4070362],[-99.1438518,19.4070362]]},"properties":{"area":"yes","highway":"pedestrian","surface":"paving_stones","id":456118125}},{"type":"Feature","geometry":{"type":"LineString","coordinates":[[-99.144072,19.4074334],[-99.1440698,19.4072827],[-99.1444528,19.4072529],[-99.1444822,19.4072992],[-99.1444697,19.4074314],[-99.144072,19.4074334]]},"properties":{"area":"yes","highway":"pedestrian","surface":"paving_stones","id":456118126}},{"type":"Feature","geometry":{"type":"LineString","coordinates":[[-99.143732,19.4183584],[-99.1436534,19.4183084],[-99.1437045,19.4178194],[-99.1439245,19.4178342],[-99.1438773,19.4182936],[-99.143732,19.4183584]]},"properties":{"area":"yes","highway":"pedestrian","id":456118128}},{"type":"Feature","geometry":{"type":"LineString","coordinates":[[-99.1442772,19.4108785],[-99.144186,19.4108722],[-99.1438849,19.4108508],[-99.1417244,19.410722],[-99.1391971,19.4105575],[-99.1372767,19.4104187],[-99.1355439,19.4102946]]},"properties":{"highway":"tertiary","lanes":"2","name":"Calle Juan A. Mateos","oneway":"yes","surface":"asphalt","id":531853565}},{"type":"Feature","geometry":{"type":"LineString","coordinates":[[-99.1439225,19.4130496],[-99.1440487,19.4132002]]},"properties":{"footway":"sidewalk","highway":"footway","layer":"-1","name":"transbordo Metro Obrera","tunnel":"yes","id":535010245}},{"type":"Feature","geometry":{"type":"LineString","coordinates":[[-99.1442152,19.413081],[-99.1440487,19.4132002]]},"properties":{"footway":"sidewalk","highway":"footway","layer":"-1","name":"transbordo Metro Obrera","tunnel":"yes","id":535010248}},{"type":"Feature","geometry":{"type":"LineString","coordinates":[[-99.144245,19.412152],[-99.1441789,19.4130027],[-99.1442152,19.413081]]},"properties":{"footway":"sidewalk","highway":"footway","name":"transbordo Metro Obrera","id":535010251}},{"type":"Feature","geometry":{"type":"LineString","coordinates":[[-99.1439741,19.412932],[-99.1439225,19.4130496]]},"properties":{"footway":"sidewalk","highway":"footway","name":"transbordo Metro Obrera","id":535010254}},{"type":"Feature","geometry":{"type":"LineString","coordinates":[[-99.1441798,19.4133237],[-99.1440487,19.4132002]]},"properties":{"highway":"footway","layer":"-1","name":"transbordo intermodal metro obrera-linea S","tunnel":"yes","id":537044512}},{"type":"Feature","geometry":{"type":"LineString","coordinates":[[-99.1441306,19.4134024],[-99.1441798,19.4133237]]},"properties":{"highway":"footway","name":"transbordo intermodal metro obrera-linea S","id":537044513}},{"type":"Feature","geometry":{"type":"LineString","coordinates":[[-99.1440623,19.4141259],[-99.1441306,19.4134024]]},"properties":{"highway":"footway","name":"transbordo intermodal metro obrera-linea S","id":537044514}},{"type":"Feature","geometry":{"type":"LineString","coordinates":[[-99.1441481,19.4142321],[-99.1440623,19.4141259]]},"properties":{"highway":"footway","name":"transbordo intermodal metro obrera-linea S","id":537044515}},{"type":"Feature","geometry":{"type":"LineString","coordinates":[[-99.1438557,19.41327],[-99.1440487,19.4132002]]},"properties":{"highway":"footway","layer":"-1","name":"transbordo intermodal metro obrera-linea S","tunnel":"yes","id":537044516}},{"type":"Feature","geometry":{"type":"LineString","coordinates":[[-99.1438906,19.4133543],[-99.1438557,19.41327]]},"properties":{"highway":"footway","name":"transbordo intermodal metro obrera-linea S","id":537044517}},{"type":"Feature","geometry":{"type":"LineString","coordinates":[[-99.1437136,19.41522],[-99.1437163,19.4151951],[-99.1437191,19.4151623],[-99.1437618,19.41472],[-99.1438024,19.4142799],[-99.1438104,19.4141995],[-99.1438542,19.4137385],[-99.1438906,19.4133543]]},"properties":{"highway":"footway","name":"transbordo intermodal metro obrera-linea S","id":537044518}},{"type":"Feature","geometry":{"type":"LineString","coordinates":[[-99.144304,19.414259],[-99.1441481,19.4142321]]},"properties":{"highway":"footway","name":"transbordo intermodal metro obrera-linea S","id":537044526}},{"type":"Feature","geometry":{"type":"LineString","coordinates":[[-99.1434887,19.4152021],[-99.1437136,19.41522]]},"properties":{"highway":"footway","name":"transbordo intermodal metro obrera-linea S","id":537044527}},{"type":"Feature","geometry":{"type":"LineString","coordinates":[[-99.1541536,19.4185725],[-99.1533541,19.4185402],[-99.1524181,19.418459],[-99.1505858,19.418318],[-99.1504906,19.4183079],[-99.1490948,19.4181944],[-99.1477595,19.4180859]]},"properties":{"highway":"residential","lanes":"2","name":"Calle Doctor Ignacio Erazo","oneway":"yes","surface":"asphalt","id":569384322}},{"type":"Feature","geometry":{"type":"LineString","coordinates":[[-99.1543032,19.416861],[-99.1534941,19.4168014],[-99.1526595,19.4167333],[-99.1507698,19.416568],[-99.1494458,19.4164522],[-99.1480754,19.4163596]]},"properties":{"alt_name":"Calle Doctor M. Garc\u00eda Diego","highway":"residential","lanes":"2","name":"Calle Doctor Salvador Garc\u00edadiego","oneway":"yes","surface":"asphalt","id":569385785}},{"type":"Feature","geometry":{"type":"LineString","coordinates":[[-99.1543537,19.4159694],[-99.1535887,19.4159123],[-99.1529478,19.4158598],[-99.152778,19.4158459],[-99.1524558,19.4158196],[-99.1510326,19.4157035],[-99.1508945,19.4156934],[-99.1498605,19.4156078],[-99.1496387,19.415593],[-99.1483256,19.4155009],[-99.1482886,19.4154979],[-99.1482273,19.4154929]]},"properties":{"alt_name":"Eje 2 Sur;Eje Vial 2 Sur","bicycle":"yes","highway":"tertiary","lanes":"2","maxspeed":"50","name":"Calle Doctor Olvera","oneway":"yes","ref":"EJE 2 SUR","surface":"asphalt","trolley_wire":"yes","id":569385793}},{"type":"Feature","geometry":{"type":"LineString","coordinates":[[-99.1544441,19.4150536],[-99.154395,19.4150536],[-99.1536839,19.4150178],[-99.1529053,19.4149575],[-99.1527393,19.4149459],[-99.1511806,19.4148366],[-99.1511364,19.4148331],[-99.1498138,19.4147284],[-99.1490946,19.414675],[-99.1483749,19.4146215]]},"properties":{"alt_name":"Eje 2A Sur;Eje Vial 2A Sur","bus:lanes":"||designated","highway":"tertiary","lanes":"3","maxspeed":"50","name":"Doctor Balmis","oneway":"yes","ref":"EJE 2A SUR","short_name":"Dr. Balmis","surface":"asphalt","trolley_wire":"yes","id":569385800}},{"type":"Feature","geometry":{"type":"LineString","coordinates":[[-99.1472222,19.420582],[-99.1469033,19.4205701],[-99.1456049,19.4204916],[-99.1442348,19.4203942],[-99.1434822,19.4203159],[-99.143377,19.4203091],[-99.1433114,19.4203048]]},"properties":{"highway":"residential","lanes":"2","name":"Calle Doctor J. Navarro","oneway":"yes","surface":"asphalt","id":569404312}},{"type":"Feature","geometry":{"type":"LineString","coordinates":[[-99.1474647,19.4192064],[-99.1475582,19.4192147]]},"properties":{"highway":"secondary","lanes":"2","name":"Calle Doctor Ildelfonso Velasco","oneway":"yes","surface":"asphalt","id":569404590}},{"type":"Feature","geometry":{"type":"LineString","coordinates":[[-99.1475582,19.4192147],[-99.1488565,19.4193184],[-99.1493427,19.4193633],[-99.1496267,19.4193896],[-99.1503593,19.4194572],[-99.1504402,19.419463],[-99.1522684,19.4196011],[-99.1532562,19.4196757],[-99.1540717,19.4197309]]},"properties":{"highway":"secondary","lanes":"2","name":"Calle Doctor Ildelfonso Velasco","oneway":"yes","surface":"asphalt","id":569404592}},{"type":"Feature","geometry":{"type":"LineString","coordinates":[[-99.1477595,19.4180859],[-99.1476668,19.4180768]]},"properties":{"highway":"residential","lanes":"2","name":"Calle Doctor Ignacio Erazo","oneway":"yes","surface":"asphalt","id":569404593}},{"type":"Feature","geometry":{"type":"LineString","coordinates":[[-99.1479593,19.4163484],[-99.1479487,19.4164096],[-99.1479256,19.4165469],[-99.1478053,19.4172599]]},"properties":{"highway":"secondary","lanes":"2","name":"Avenida Doctor Jos\u00e9 Mar\u00eda V\u00e9rtiz","oneway":"yes","surface":"asphalt","id":569404595}},{"type":"Feature","geometry":{"type":"LineString","coordinates":[[-99.1476668,19.4180768],[-99.1460812,19.4179485],[-99.1446692,19.417823],[-99.1436468,19.4177295],[-99.1435748,19.4177242]]},"properties":{"highway":"residential","lanes":"2","name":"Calle Doctor Ignacio Erazo","oneway":"yes","surface":"asphalt","id":569404596}},{"type":"Feature","geometry":{"type":"LineString","coordinates":[[-99.1478053,19.4172599],[-99.1479096,19.4172712]]},"properties":{"highway":"residential","lanes":"2","name":"Calle Doctor Jos\u00e9 Pablo Mart\u00ednez del R\u00edo","oneway":"yes","surface":"asphalt","id":569404598}},{"type":"Feature","geometry":{"type":"LineString","coordinates":[[-99.1479096,19.4172712],[-99.1492565,19.4173919],[-99.150598,19.4175121],[-99.1506946,19.4175251],[-99.1525305,19.4176855],[-99.1542258,19.4178218]]},"properties":{"highway":"residential","lanes":"2","name":"Calle Doctor Jos\u00e9 Pablo Mart\u00ednez del R\u00edo","oneway":"yes","surface":"asphalt","id":569404600}},{"type":"Feature","geometry":{"type":"LineString","coordinates":[[-99.1480754,19.4163596],[-99.1482736,19.416272],[-99.1494853,19.4157813],[-99.1495241,19.4157574],[-99.1495491,19.4157289],[-99.1495613,19.4156714],[-99.1495855,19.4156247],[-99.1496387,19.415593]]},"properties":{"highway":"tertiary","lanes":"2","name":"Calle Doctor Jos\u00e9 Terr\u00e9s","oneway":"yes","surface":"asphalt","id":569404601}},{"type":"Feature","geometry":{"type":"LineString","coordinates":[[-99.1480754,19.4163596],[-99.1479593,19.4163484]]},"properties":{"alt_name":"Calle Doctor M. Garc\u00eda Diego","highway":"residential","name":"Calle Doctor Salvador Garc\u00edadiego","oneway":"yes","surface":"asphalt","id":569404602}},{"type":"Feature","geometry":{"type":"LineString","coordinates":[[-99.1479593,19.4163484],[-99.1463916,19.4161974],[-99.1449357,19.4160726],[-99.1438333,19.4159749],[-99.1437542,19.4159679]]},"properties":{"alt_name":"Calle Doctor M. Garc\u00eda Diego","highway":"residential","lanes":"2","name":"Calle Doctor Salvador Garc\u00edadiego","oneway":"yes","surface":"asphalt","id":569404605}},{"type":"Feature","geometry":{"type":"LineString","coordinates":[[-99.1479487,19.4164096],[-99.1480754,19.4163596]]},"properties":{"highway":"tertiary","lanes":"2","name":"Calle Doctor Jos\u00e9 Terr\u00e9s","oneway":"yes","surface":"asphalt","id":569404606}},{"type":"Feature","geometry":{"type":"LineString","coordinates":[[-99.1482273,19.4154929],[-99.1481089,19.4154832]]},"properties":{"alt_name":"Eje 2 Sur;Eje Vial 2 Sur","bicycle":"yes","highway":"tertiary","lanes":"2","name":"Calle Doctor Olvera","oneway":"yes","ref":"EJE 2 SUR","short_name":"Dr. Olvera","surface":"asphalt","trolley_wire":"yes","id":569404608}},{"type":"Feature","geometry":{"type":"LineString","coordinates":[[-99.1479096,19.4172712],[-99.1480419,19.4165437],[-99.1480754,19.4163596]]},"properties":{"highway":"secondary","lanes":"2","name":"Avenida Doctor Jos\u00e9 Mar\u00eda V\u00e9rtiz","oneway":"yes","surface":"asphalt","id":569404609}},{"type":"Feature","geometry":{"type":"LineString","coordinates":[[-99.1481089,19.4154832],[-99.1480429,19.4154779],[-99.1467508,19.4153729],[-99.1465541,19.4153569],[-99.1450643,19.4152548],[-99.1444814,19.4152143],[-99.1439778,19.4151794],[-99.1439143,19.4151748],[-99.1438364,19.4151706]]},"properties":{"alt_name":"Eje Vial 2 Sur (Doctor Olvera);Eje 2 Sur","bicycle":"yes","highway":"tertiary","lanes":"2","lit":"yes","maxspeed":"50","name":"Calle Doctor Olvera","oneway":"yes","ref":"EJE 2 SUR","surface":"asphalt","trolley_wire":"yes","id":569404611}},{"type":"Feature","geometry":{"type":"LineString","coordinates":[[-99.1483749,19.4146215],[-99.1482747,19.4146151]]},"properties":{"alt_name":"Eje 2A Sur;Eje Vial 2A Sur","bus:lanes":"||designated","highway":"tertiary","lanes":"3","name":"Doctor Balmis","oneway":"yes","ref":"EJE 2A SUR","short_name":"Dr. Balmis","surface":"asphalt","trolley_wire":"yes","id":569404612}},{"type":"Feature","geometry":{"type":"LineString","coordinates":[[-99.1482747,19.4146151],[-99.1467181,19.4145127],[-99.145202,19.4143942],[-99.1441157,19.4143051],[-99.1439977,19.4142955],[-99.143928,19.414291]]},"properties":{"alt_name":"Eje Vial 2A Sur;Eje 2A Sur","bus:lanes":"||designated","highway":"tertiary","lanes":"3","maxspeed":"50","name":"Doctor Balmis","oneway":"yes","ref":"EJE 2A SUR","surface":"asphalt","trolley_wire":"yes","id":569404616}},{"type":"Feature","geometry":{"type":"LineString","coordinates":[[-99.1488803,19.4111743],[-99.1487529,19.4118689],[-99.1486814,19.4122742]]},"properties":{"highway":"secondary","lanes":"2","name":"Avenida Doctor Jos\u00e9 Mar\u00eda V\u00e9rtiz","oneway":"yes","surface":"asphalt","id":569404617}},{"type":"Feature","geometry":{"type":"LineString","coordinates":[[-99.1485692,19.4135353],[-99.1487928,19.4122847]]},"properties":{"highway":"secondary","lanes":"2","name":"Avenida Doctor Jos\u00e9 Mar\u00eda V\u00e9rtiz","oneway":"yes","surface":"asphalt","id":569404619}},{"type":"Feature","geometry":{"type":"LineString","coordinates":[[-99.1440356,19.4132214],[-99.1441094,19.4132267],[-99.1453804,19.4132836],[-99.1464226,19.4133544],[-99.1469317,19.413389],[-99.1484669,19.413528]]},"properties":{"highway":"residential","lanes":"2","name":"Calle Doctor Fortunato Gonz\u00e1lez Arce","oneway":"yes","surface":"asphalt","id":569404620}},{"type":"Feature","geometry":{"type":"LineString","coordinates":[[-99.1487928,19.4122847],[-99.1486814,19.4122742]]},"properties":{"highway":"residential","lanes":"2","name":"Calle Doctor Dur\u00e1n","oneway":"yes","surface":"asphalt","id":569404621}},{"type":"Feature","geometry":{"type":"LineString","coordinates":[[-99.1505364,19.4112289],[-99.1504184,19.4112572],[-99.1503346,19.411266],[-99.1499007,19.4112346],[-99.1496545,19.4112204],[-99.1489897,19.411184]]},"properties":{"highway":"residential","lanes":"2","name":"Calle Doctor M\u00e1rquez","oneway":"yes","surface":"asphalt","id":569404624}},{"type":"Feature","geometry":{"type":"LineString","coordinates":[[-99.1491198,19.4099055],[-99.1492168,19.4099141]]},"properties":{"highway":"residential","lanes":"2","name":"Calle Doctor Rafa\u00e9l Norma","oneway":"yes","surface":"asphalt","id":569404629}},{"type":"Feature","geometry":{"type":"LineString","coordinates":[[-99.1492168,19.4099141],[-99.150148,19.4100234],[-99.15078,19.4101012]]},"properties":{"highway":"residential","lanes":"2","name":"Calle Doctor Rafa\u00e9l Norma","oneway":"yes","surface":"asphalt","id":569404631}},{"type":"Feature","geometry":{"type":"LineString","coordinates":[[-99.1495365,19.4081267],[-99.1494323,19.4081297]]},"properties":{"highway":"residential","lanes":"2","name":"Calle Doctor Federico G\u00f3mez Ugarte Santos","oneway":"yes","surface":"asphalt","id":569404632}},{"type":"Feature","geometry":{"type":"LineString","coordinates":[[-99.1494323,19.4081297],[-99.1478742,19.4082465],[-99.1473542,19.4082907],[-99.1470686,19.4083058],[-99.1468922,19.4083152],[-99.1466446,19.4083337],[-99.1462192,19.4083656],[-99.1457863,19.4083968],[-99.1453246,19.4084301],[-99.1446033,19.4084821],[-99.1445194,19.4084882]]},"properties":{"highway":"residential","lanes":"2","name":"Calle Doctor Federico G\u00f3mez Ugarte Santos","oneway":"yes","surface":"asphalt","id":569404635}},{"type":"Feature","geometry":{"type":"LineString","coordinates":[[-99.1422128,19.4073317],[-99.1422991,19.4066795],[-99.1424791,19.4053179],[-99.1426725,19.4039298]]},"properties":{"highway":"tertiary","lanes":"2","name":"Calle Sim\u00f3n Bol\u00edvar","oneway":"yes","surface":"asphalt","id":617525562}},{"type":"Feature","geometry":{"type":"LineString","coordinates":[[-99.1376773,19.4076709],[-99.1376834,19.4076244],[-99.1376872,19.4075955],[-99.1378386,19.4064397],[-99.1378778,19.4061454],[-99.1380477,19.4048215],[-99.1381844,19.4036935]]},"properties":{"bicycle":"yes","highway":"residential","lanes":"2","name":"Calle 5 de Febrero","oneway":"yes","sidewalk":"both","surface":"asphalt","id":617628983}},{"type":"Feature","geometry":{"type":"LineString","coordinates":[[-99.1360346,19.407634],[-99.1356629,19.4075864]]},"properties":{"bridge":"yes","highway":"footway","layer":"1","id":617628985}},{"type":"Feature","geometry":{"type":"LineString","coordinates":[[-99.1445194,19.4084882],[-99.1444464,19.4091668],[-99.1443816,19.409855],[-99.144335,19.410328],[-99.1442772,19.4108785],[-99.144251,19.4111149],[-99.1442195,19.4114227],[-99.1441623,19.4119686],[-99.1441013,19.4125988],[-99.1440356,19.4132214],[-99.1439818,19.4137475],[-99.1439364,19.4141914],[-99.143928,19.414291]]},"properties":{"alt_name":"Ni\u00f1o Perdido;Eje Central","bus:lanes":"||||designated","busway":"opposite_lane","busway:right":"lane","cycleway:right":"track","highway":"primary","lanes":"5","name":"Avenida L\u00e1zaro C\u00e1rdenas","oneway":"yes","ref":"EJE CENTRAL","surface":"asphalt","trolley_wire":"yes","id":617628987}},{"type":"Feature","geometry":{"type":"LineString","coordinates":[[-99.1475838,19.4099],[-99.147456,19.4106379],[-99.1473792,19.4110499],[-99.1472721,19.4116039],[-99.1471693,19.4121484],[-99.1469317,19.413389],[-99.1469006,19.4135523],[-99.1467181,19.4145127]]},"properties":{"highway":"residential","lanes":"2","name":"Calle Doctor Agust\u00edn Andrade","oneway":"yes","surface":"asphalt","id":617633709}},{"type":"Feature","geometry":{"type":"LineString","coordinates":[[-99.1478742,19.4082465],[-99.147645,19.4095458],[-99.1475838,19.4099]]},"properties":{"highway":"residential","lanes":"2","name":"Calle Doctor Agust\u00edn Andrade","oneway":"yes","surface":"asphalt","id":617633710}},{"type":"Feature","geometry":{"type":"LineString","coordinates":[[-99.1464292,19.407096],[-99.1465941,19.4056496],[-99.1466929,19.4047235],[-99.1467608,19.4042272]]},"properties":{"highway":"residential","lanes":"2","name":"Calle Doctor Barrag\u00e1n","oneway":"yes","surface":"asphalt","id":617633711}},{"type":"Feature","geometry":{"type":"LineString","coordinates":[[-99.1408497,19.4167208],[-99.139782,19.4161062],[-99.1389017,19.4155634],[-99.1386338,19.4153871],[-99.1375374,19.4147287]]},"properties":{"highway":"tertiary","lanes":"4","name":"Calle Jos\u00e9 Tom\u00e1s Cu\u00e9llar","surface":"asphalt","id":617633721}},{"type":"Feature","geometry":{"type":"LineString","coordinates":[[-99.1439349,19.4222994],[-99.1439607,19.4221386],[-99.1440418,19.4216159],[-99.1442348,19.4203942],[-99.1444791,19.418941]]},"properties":{"highway":"residential","lanes":"2","name":"Calle Doctor Barrag\u00e1n","oneway":"yes","surface":"asphalt","id":617633724}},{"type":"Feature","geometry":{"type":"LineString","coordinates":[[-99.144335,19.410328],[-99.144237,19.4103268],[-99.1441413,19.4103472],[-99.1440533,19.4103879],[-99.1439812,19.4104434],[-99.1439239,19.4105125],[-99.1438841,19.4105918],[-99.1438638,19.4106775],[-99.1438641,19.4107653],[-99.1438849,19.4108508],[-99.1439188,19.4109201],[-99.1439662,19.4109819],[-99.1440253,19.411034],[-99.1440939,19.4110744],[-99.1441695,19.4111017],[-99.144251,19.4111149]]},"properties":{"alt_name":"Glorieta del T\u00edo Sam","highway":"residential","name":"Calle Doctor M\u00e1rquez","oneway":"yes","surface":"asphalt","id":617633725}},{"type":"Feature","geometry":{"type":"LineString","coordinates":[[-99.1446526,19.4109034],[-99.1446892,19.4108105],[-99.1447002,19.4107118],[-99.1446848,19.4106137],[-99.144644,19.4105223],[-99.1445804,19.4104433],[-99.1444979,19.4103818],[-99.1444018,19.4103415],[-99.144335,19.410328]]},"properties":{"alt_name":"Glorieta del T\u00edo Sam","highway":"residential","name":"Calle Doctor M\u00e1rquez","oneway":"yes","surface":"asphalt","id":617633726}},{"type":"Feature","geometry":{"type":"LineString","coordinates":[[-99.145202,19.4143942],[-99.1453804,19.4132836],[-99.1454999,19.4125876],[-99.1455911,19.4120565],[-99.1456955,19.4115247],[-99.1457834,19.4109776],[-99.1458569,19.4105588],[-99.1459769,19.4098745],[-99.1461007,19.4091193],[-99.1462192,19.4083656],[-99.1463237,19.4077541],[-99.1464292,19.407096]]},"properties":{"highway":"residential","lanes":"2","name":"Calle Doctor Barrag\u00e1n","oneway":"yes","surface":"concrete","id":617638495}},{"type":"Feature","geometry":{"type":"LineString","coordinates":[[-99.1446692,19.417823],[-99.1448227,19.4176813],[-99.1449299,19.4176181],[-99.1462201,19.4171087],[-99.1479487,19.4164096]]},"properties":{"highway":"tertiary","lanes":"2","name":"Calle Doctor Jos\u00e9 Terr\u00e9s","oneway":"yes","surface":"asphalt","id":617638498}},{"type":"Feature","geometry":{"type":"LineString","coordinates":[[-99.1463916,19.4161974],[-99.1462201,19.4171087],[-99.1460812,19.4179485],[-99.1458698,19.4190773],[-99.1457597,19.4196649],[-99.1456049,19.4204916],[-99.1453697,19.4217473],[-99.145265,19.4223061]]},"properties":{"highway":"residential","lanes":"2","name":"Calle Doctor Agust\u00edn Andrade","oneway":"yes","surface":"asphalt","id":617638499}},{"type":"Feature","geometry":{"type":"LineString","coordinates":[[-99.1457597,19.4196649],[-99.1469544,19.4204008]]},"properties":{"highway":"tertiary","lanes":"2","name":"Calle Doctor Claudio Bernard","surface":"asphalt","id":617638500}},{"type":"Feature","geometry":{"type":"LineString","coordinates":[[-99.1346316,19.4161625],[-99.1363956,19.4163059],[-99.1385006,19.4165085],[-99.1408497,19.4167208]]},"properties":{"highway":"residential","lanes":"2","maxspeed":"40","name":"Calle Manuel M. Flores","oneway":"yes","surface":"asphalt","id":617638505}},{"type":"Feature","geometry":{"type":"LineString","coordinates":[[-99.1369939,19.4123143],[-99.1370267,19.4120919],[-99.1370537,19.4119082],[-99.1371197,19.4114618],[-99.1371999,19.4109481],[-99.1372767,19.4104187],[-99.1373421,19.4100023],[-99.1374097,19.4095852],[-99.1374883,19.4090068],[-99.1375757,19.4084005],[-99.1376225,19.4080623],[-99.1376655,19.4077513],[-99.1376773,19.4076709]]},"properties":{"bicycle":"yes","highway":"residential","lanes":"2","name":"Calle 5 de Febrero","oneway":"yes","sidewalk":"both","surface":"asphalt","id":617638516}},{"type":"Feature","geometry":{"type":"LineString","coordinates":[[-99.1395627,19.4075296],[-99.1395049,19.4079945],[-99.1394535,19.4084336],[-99.1393875,19.40904],[-99.1393083,19.4096556],[-99.1392589,19.4100955],[-99.1391971,19.4105575],[-99.1391355,19.4110777],[-99.1390784,19.4116018],[-99.1390014,19.4122549],[-99.138928,19.4128897],[-99.1388683,19.413394],[-99.1388135,19.413846],[-99.1388103,19.4138838],[-99.1387539,19.4143602],[-99.1387007,19.4148103],[-99.1386962,19.4148489],[-99.1386338,19.4153871],[-99.1386161,19.4155336],[-99.1385605,19.4160032],[-99.1385006,19.4165085],[-99.1384523,19.4169162],[-99.1384044,19.4173212],[-99.138342,19.4178476],[-99.1382784,19.4183848],[-99.1381965,19.4190766],[-99.1381116,19.4197928],[-99.1380397,19.4203919]]},"properties":{"highway":"tertiary","lanes":"2","name":"Calle Isabel la Cat\u00f3lica","oneway":"yes","surface":"asphalt","id":617638517}},{"type":"Feature","geometry":{"type":"LineString","coordinates":[[-99.1412349,19.4140928],[-99.1412433,19.4140184],[-99.1413078,19.4135808],[-99.1413832,19.4130613],[-99.1414775,19.412425],[-99.1415673,19.4117722],[-99.1416454,19.4112476],[-99.1417244,19.410722],[-99.1417975,19.4102378],[-99.1418629,19.4097724],[-99.1419581,19.4091131],[-99.1420576,19.408463],[-99.1421416,19.4079141],[-99.1422128,19.4073317]]},"properties":{"highway":"tertiary","lanes":"2","maxspeed":"50","name":"Calle Sim\u00f3n Bol\u00edvar","oneway":"yes","surface":"asphalt","id":617638518}},{"type":"Feature","geometry":{"type":"LineString","coordinates":[[-99.1437542,19.4159679],[-99.1436574,19.416925],[-99.1436141,19.4173438],[-99.1435748,19.4177242],[-99.1435315,19.4181528],[-99.1435146,19.4183179]]},"properties":{"alt_name":"Ni\u00f1o Perdido;Eje Central","cycleway:right":"track","highway":"primary","lanes":"4","name":"Avenida L\u00e1zaro C\u00e1rdenas","oneway":"yes","ref":"EJE CENTRAL","surface":"asphalt","trolley_wire":"yes","id":617638520}},{"type":"Feature","geometry":{"type":"LineString","coordinates":[[-99.1496387,19.415593],[-99.1496319,19.4156262],[-99.1494458,19.4164522],[-99.1492565,19.4173919],[-99.1490948,19.4181944],[-99.1488565,19.4193184],[-99.1486503,19.4202719]]},"properties":{"highway":"residential","lanes":"2","name":"Calle Doctor Miguel Francisco Jim\u00e9nez","oneway":"yes","surface":"asphalt","id":617718969}},{"type":"Feature","geometry":{"type":"LineString","coordinates":[[-99.1346671,19.4159317],[-99.1347054,19.4156841],[-99.1347776,19.4152004],[-99.1348312,19.4148724],[-99.1348828,19.4145413],[-99.1350558,19.4134298],[-99.1350715,19.4133289],[-99.1351019,19.4131335],[-99.1351745,19.4126674],[-99.1352511,19.4121753],[-99.1353135,19.4117748],[-99.1353254,19.4116972],[-99.1353375,19.4116207],[-99.1353811,19.4113408],[-99.1354637,19.4108099],[-99.1355439,19.4102946],[-99.1356479,19.4098846],[-99.135749,19.4095243],[-99.1358213,19.4092495],[-99.1358536,19.4090835],[-99.1358659,19.4089318],[-99.1358677,19.4088969],[-99.1358809,19.4083672],[-99.1358894,19.4081718],[-99.1359304,19.4076404],[-99.1360357,19.4070097],[-99.1360508,19.4069049],[-99.1361582,19.4062492],[-99.1361711,19.4061708],[-99.1362084,19.4059437],[-99.1364056,19.4046375]]},"properties":{"bus:lanes":"yes|yes|yes|designated","foot":"yes","highway":"trunk","lanes":"4","name":"Calzada San Antonio Abad","oneway":"yes","surface":"asphalt","id":617887672}},{"type":"Feature","geometry":{"type":"LineString","coordinates":[[-99.1405825,19.4185989],[-99.1406604,19.4180514],[-99.1407362,19.4175186],[-99.140795,19.4171049],[-99.1408497,19.4167208],[-99.1410017,19.4157402],[-99.141049,19.4153621],[-99.1410853,19.4151111],[-99.1411004,19.4150068],[-99.1411041,19.4149789],[-99.1411702,19.4145437],[-99.1412349,19.4140928]]},"properties":{"highway":"tertiary","lanes":"2","name":"Calle Sim\u00f3n Bol\u00edvar","oneway":"yes","surface":"asphalt","id":617887682}},{"type":"Feature","geometry":{"type":"LineString","coordinates":[[-99.1433114,19.4203048],[-99.1432503,19.4209032],[-99.1431892,19.4215],[-99.1431496,19.4218878],[-99.1431212,19.4221653]]},"properties":{"alt_name":"Ni\u00f1o Perdido;Eje Central","highway":"primary","lanes":"4","name":"Avenida L\u00e1zaro C\u00e1rdenas","oneway":"yes","ref":"EJE CENTRAL","surface":"asphalt","trolley_wire":"yes","id":617887683}},{"type":"Feature","geometry":{"type":"LineString","coordinates":[[-99.1417151,19.4192011],[-99.1430952,19.4193183],[-99.1433464,19.4193415],[-99.1434094,19.4193468]]},"properties":{"highway":"residential","name":"Calle \u00c1lvarez de Icaza","oneway":"yes","surface":"asphalt","id":617887684}},{"type":"Feature","geometry":{"type":"LineString","coordinates":[[-99.1451391,19.4104271],[-99.1452148,19.4098655],[-99.1453112,19.4091509],[-99.145317,19.408515],[-99.1453182,19.4084915],[-99.1453246,19.4084301]]},"properties":{"highway":"residential","name":"Doctor V\u00e9lez","surface":"asphalt","id":617887688}},{"type":"Feature","geometry":{"type":"LineString","coordinates":[[-99.1385318,19.4122161],[-99.1385815,19.4115663]]},"properties":{"highway":"residential","name":"Calle Primero de Mayo","id":617887689}},{"type":"Feature","geometry":{"type":"LineString","coordinates":[[-99.1466257,19.4079834],[-99.1466446,19.4083337]]},"properties":{"highway":"residential","name":"Cerrada Segunda Doctor Federico G\u00f3mez Ugarte Santos","surface":"asphalt","id":654603190}},{"type":"Feature","geometry":{"type":"LineString","coordinates":[[-99.1464587,19.4106909],[-99.1458569,19.4105588]]},"properties":{"highway":"residential","id":654603191}},{"type":"Feature","geometry":{"type":"LineString","coordinates":[[-99.1495302,19.410933],[-99.1491232,19.4109088]]},"properties":{"access":"private","highway":"residential","name":"Cerrada Jos\u00e9 Mar\u00eda V\u00e9rtiz","surface":"concrete","id":654603192}},{"type":"Feature","geometry":{"type":"LineString","coordinates":[[-99.1487132,19.4090378],[-99.1486639,19.4090175],[-99.1483148,19.4090677],[-99.1482592,19.4090852]]},"properties":{"highway":"residential","name":"Cerrada Doctor Norma","surface":"asphalt","id":654605564}},{"type":"Feature","geometry":{"type":"LineString","coordinates":[[-99.141733,19.4162178],[-99.1417613,19.4158024]]},"properties":{"highway":"residential","name":"Privada Guti\u00farrez N\u00e1jera","id":654840379}},{"type":"Feature","geometry":{"type":"LineString","coordinates":[[-99.138342,19.4178476],[-99.1406604,19.4180514],[-99.1431904,19.4182876],[-99.1434496,19.4183135],[-99.1435146,19.4183179]]},"properties":{"highway":"residential","name":"Calle Rafa\u00e9l \u00c1ngel de la Pe\u00f1a","oneway":"yes","surface":"asphalt","id":679945780}},{"type":"Feature","geometry":{"type":"LineString","coordinates":[[-99.1463237,19.4077541],[-99.1454778,19.4077707],[-99.1446557,19.4077984],[-99.1445898,19.4078006]]},"properties":{"highway":"residential","name":"Calle \u00c1ngel del Campo","oneway":"yes","surface":"asphalt","id":683249539}},{"type":"Feature","geometry":{"type":"LineString","coordinates":[[-99.1444464,19.4091668],[-99.1419581,19.4091131],[-99.1393875,19.40904],[-99.1374883,19.4090068],[-99.1358659,19.4089318]]},"properties":{"highway":"residential","name":"Calle Manuel Caballero","oneway":"yes","surface":"asphalt","id":683249540}},{"type":"Feature","geometry":{"type":"LineString","coordinates":[[-99.1440533,19.4103879],[-99.1417975,19.4102378],[-99.1392589,19.4100955],[-99.1373421,19.4100023],[-99.1356479,19.4098846]]},"properties":{"highway":"residential","name":"Calle Rafa\u00e9l Delgado","oneway":"yes","surface":"asphalt","id":683249542}},{"type":"Feature","geometry":{"type":"LineString","coordinates":[[-99.1438816,19.4147282],[-99.1438032,19.4147228],[-99.1437618,19.41472],[-99.1411702,19.4145437],[-99.1387539,19.4143602],[-99.1367109,19.4142264]]},"properties":{"highway":"residential","name":"Calle Antonio Garc\u00eda Cubas","oneway":"yes","surface":"asphalt","id":683249545}},{"type":"Feature","geometry":{"type":"LineString","coordinates":[[-99.1351019,19.4131335],[-99.1351509,19.4131369],[-99.1368555,19.4132548],[-99.1388683,19.413394],[-99.1413078,19.4135808],[-99.1438542,19.4137385],[-99.1439024,19.4137429],[-99.1439818,19.4137475]]},"properties":{"highway":"residential","name":"Calle Juan de Dios Peza","oneway":"yes","surface":"asphalt","id":683249546}},{"type":"Feature","geometry":{"type":"LineString","coordinates":[[-99.1351745,19.4126674],[-99.1369267,19.4127712],[-99.138928,19.4128897],[-99.1413832,19.4130613],[-99.1439601,19.4132244],[-99.1440356,19.4132214]]},"properties":{"highway":"residential","lanes":"2","name":"Calle Fernando Ram\u00edrez","oneway":"yes","surface":"asphalt","id":683249547}},{"type":"Feature","geometry":{"type":"LineString","coordinates":[[-99.1311607,19.4109135],[-99.1314717,19.4109462],[-99.1318985,19.4109911],[-99.1320947,19.4110117],[-99.1326577,19.4110709],[-99.1330634,19.4111136],[-99.1336233,19.4111725],[-99.1341284,19.4112256],[-99.1346088,19.4112761],[-99.1351678,19.4113349]]},"properties":{"highway":"residential","name":"Calle Jos\u00e9 Mar\u00eda Roa B\u00e1rcenas","oneway":"yes","surface":"asphalt","id":683249553}},{"type":"Feature","geometry":{"type":"LineString","coordinates":[[-99.1353293,19.4102743],[-99.1347754,19.4102317],[-99.1342833,19.4102015],[-99.1337803,19.4101714],[-99.1332339,19.4101398]]},"properties":{"highway":"residential","lanes":"1","name":"Calle Juan A. Mateos","oneway":"yes","surface":"asphalt","id":683249554}},{"type":"Feature","geometry":{"type":"LineString","coordinates":[[-99.1357811,19.4080787],[-99.1358692,19.4080282],[-99.1360695,19.4079061],[-99.1361758,19.4078623],[-99.1363312,19.4078048],[-99.1365186,19.4077654],[-99.1370922,19.4077209],[-99.137444,19.4076884]]},"properties":{"alt_name":"Eje Vial 3 Sur;Eje 3 Sur","bridge":"yes","foot":"no","highway":"primary","lanes":"3","layer":"1","name":"Jos\u00e9 Pe\u00f3n Contreras","oneway":"yes","ref":"EJE 3 SUR","surface":"asphalt","id":686011960}},{"type":"Feature","geometry":{"type":"LineString","coordinates":[[-99.1444791,19.418941],[-99.1446692,19.417823]]},"properties":{"highway":"tertiary","lanes":"2","name":"Calle Doctor Barrag\u00e1n","oneway":"yes","surface":"asphalt","id":688967693}},{"type":"Feature","geometry":{"type":"LineString","coordinates":[[-99.1446692,19.417823],[-99.1447927,19.4170073],[-99.1449357,19.4160726],[-99.1450589,19.4152889],[-99.1450643,19.4152548],[-99.1451323,19.4148132],[-99.145202,19.4143942]]},"properties":{"highway":"residential","lanes":"2","name":"Calle Doctor Barrag\u00e1n","oneway":"yes","surface":"asphalt","id":688967694}},{"type":"Feature","geometry":{"type":"LineString","coordinates":[[-99.1395842,19.4430801],[-99.13991,19.4410536],[-99.1399162,19.4409454],[-99.1399221,19.4408439],[-99.1399269,19.4407831],[-99.1399495,19.4404972],[-99.1400752,19.4397738],[-99.1402516,19.4386566],[-99.1403972,19.4377976],[-99.1405032,19.4370666],[-99.1405281,19.4369416],[-99.1406373,19.43635],[-99.1406478,19.4362357],[-99.1406597,19.4361448],[-99.1406713,19.4360791],[-99.1406973,19.435873],[-99.1408499,19.4349753],[-99.1408644,19.4348922],[-99.1408885,19.4347487],[-99.1409657,19.4342946],[-99.1409724,19.4342563],[-99.1409903,19.4341549],[-99.1409944,19.4341314],[-99.1410832,19.4335617],[-99.1411917,19.4328252],[-99.1413111,19.4320201],[-99.1414205,19.4311952],[-99.1414307,19.4311345],[-99.1415217,19.4303735],[-99.1415294,19.4303327],[-99.141618,19.4297499],[-99.1417245,19.4290441],[-99.1418872,19.4279657],[-99.1420408,19.4271081],[-99.142042,19.4271015],[-99.142059,19.426999],[-99.1420692,19.4269403],[-99.1421518,19.4265892],[-99.1425916,19.4248165],[-99.1426274,19.4246632],[-99.1426383,19.4246168],[-99.1426852,19.424426],[-99.1429258,19.4234541],[-99.1430393,19.4230274],[-99.1431729,19.4222992],[-99.143183,19.4221633],[-99.1432138,19.4218984],[-99.1432558,19.4215064],[-99.1433667,19.4204112],[-99.143377,19.4203091],[-99.1435262,19.4189687],[-99.1435376,19.4188666],[-99.1435745,19.4185199],[-99.1435905,19.4183693],[-99.1436468,19.4177295],[-99.1437355,19.416931],[-99.1438333,19.4159749],[-99.1439036,19.4152802],[-99.1439108,19.4152092],[-99.1439143,19.4151748],[-99.143959,19.4147334],[-99.1439889,19.4143805],[-99.1439977,19.4142955],[-99.1441042,19.4133069],[-99.1441094,19.4132267],[-99.144237,19.4119738],[-99.1443228,19.4111139],[-99.1443461,19.4108834],[-99.1444018,19.4103415],[-99.1444428,19.4098564],[-99.1445158,19.4091703],[-99.1446033,19.4084821],[-99.1446557,19.4077984],[-99.144727,19.4071733],[-99.1448906,19.4055873],[-99.1449743,19.4047937],[-99.1450484,19.4040638],[-99.1450522,19.4040267]]},"properties":{"access":"no","alt_name":"Eje Central","bus":"designated","busway":"lane","cycleway":"share_busway","highway":"service","lanes":"1","lanes:psv":"1","name":"Carril Bus-Bici","oneway":"yes","oneway:bicycle":"yes","psv:lanes":"designated","segregated":"yes","sidewalk":"right","surface":"asphalt","id":770953212}},{"type":"Feature","geometry":{"type":"LineString","coordinates":[[-99.1388103,19.4138838],[-99.1367748,19.4137366]]},"properties":{"alt_name":"Eje Vial 2A Sur;Eje 2A Sur","highway":"tertiary","lanes":"2","name":"Manuel Payno","oneway":"yes","ref":"EJE 2A SUR","surface":"asphalt","trolley_wire":"yes","id":787743226}},{"type":"Feature","geometry":{"type":"LineString","coordinates":[[-99.1488803,19.4111743],[-99.1480675,19.4110945],[-99.1479487,19.4110868],[-99.1477093,19.4110713],[-99.1473792,19.4110499],[-99.1457834,19.4109776],[-99.1450908,19.4109355],[-99.1446526,19.4109034],[-99.1443461,19.4108834],[-99.1442772,19.4108785]]},"properties":{"highway":"tertiary","lanes":"2","name":"Calle Doctor M\u00e1rquez","oneway":"yes","surface":"asphalt","id":833637499}},{"type":"Feature","geometry":{"type":"LineString","coordinates":[[-99.1435146,19.4183179],[-99.1434464,19.4183485],[-99.1425836,19.418785]]},"properties":{"highway":"tertiary","lanes":"2","name":"Diagonal 20 de Noviembre","oneway":"yes","surface":"asphalt","id":854016739}},{"type":"Feature","geometry":{"type":"LineString","coordinates":[[-99.1494323,19.4081297],[-99.1491198,19.4099055]]},"properties":{"highway":"secondary","lanes":"2","name":"Avenida Doctor Jos\u00e9 Mar\u00eda V\u00e9rtiz","oneway":"yes","surface":"asphalt","id":854226356}},{"type":"Feature","geometry":{"type":"LineString","coordinates":[[-99.1492168,19.4099141],[-99.1492846,19.4095353],[-99.1493096,19.4093951],[-99.1494167,19.4087684],[-99.1494854,19.4084124],[-99.1495365,19.4081267]]},"properties":{"highway":"secondary","lanes":"2","name":"Avenida Doctor Jos\u00e9 Mar\u00eda V\u00e9rtiz","oneway":"yes","surface":"asphalt","id":854226357}},{"type":"Feature","geometry":{"type":"LineString","coordinates":[[-99.1484669,19.413528],[-99.1485692,19.4135353]]},"properties":{"highway":"residential","lanes":"2","name":"Calle Doctor Fortunato Gonz\u00e1lez Arce","oneway":"yes","surface":"asphalt","id":854226358}},{"type":"Feature","geometry":{"type":"LineString","coordinates":[[-99.1485692,19.4135353],[-99.1488382,19.4135565],[-99.1492913,19.4135921],[-99.1496072,19.4136068],[-99.1500497,19.4136274]]},"properties":{"highway":"residential","lanes":"2","name":"Calle Doctor Fortunato Gonz\u00e1lez Arce","oneway":"yes","surface":"asphalt","id":854226359}},{"type":"Feature","geometry":{"type":"LineString","coordinates":[[-99.1483749,19.4146215],[-99.1485692,19.4135353]]},"properties":{"bus:lanes":"designated||","highway":"secondary","lanes":"3","name":"Avenida Doctor Jos\u00e9 Mar\u00eda V\u00e9rtiz","oneway":"yes","surface":"asphalt","id":854226360}},{"type":"Feature","geometry":{"type":"LineString","coordinates":[[-99.1484669,19.413528],[-99.1482747,19.4146151]]},"properties":{"highway":"secondary","lanes":"3","name":"Avenida Doctor Jos\u00e9 Mar\u00eda V\u00e9rtiz","oneway":"yes","surface":"asphalt","id":854226361}},{"type":"Feature","geometry":{"type":"LineString","coordinates":[[-99.1495365,19.4081267],[-99.1496084,19.4077036],[-99.1496522,19.4074456],[-99.1497103,19.4071099],[-99.1497486,19.4068783]]},"properties":{"highway":"secondary","lanes":"2","name":"Avenida Doctor Jos\u00e9 Mar\u00eda V\u00e9rtiz","oneway":"yes","surface":"asphalt","id":854226362}},{"type":"Feature","geometry":{"type":"LineString","coordinates":[[-99.1496604,19.4068835],[-99.1494323,19.4081297]]},"properties":{"highway":"secondary","lanes":"2","name":"Avenida Doctor Jos\u00e9 Mar\u00eda V\u00e9rtiz","oneway":"yes","surface":"asphalt","id":854226363}},{"type":"Feature","geometry":{"type":"LineString","coordinates":[[-99.1489897,19.411184],[-99.1488803,19.4111743]]},"properties":{"highway":"tertiary","lanes":"2","name":"Calle Doctor M\u00e1rquez","oneway":"yes","surface":"asphalt","id":856087850}},{"type":"Feature","geometry":{"type":"LineString","coordinates":[[-99.1487928,19.4122847],[-99.1489897,19.411184]]},"properties":{"highway":"secondary","lanes":"2","name":"Avenida Doctor Jos\u00e9 Mar\u00eda V\u00e9rtiz","oneway":"yes","surface":"asphalt","id":856087851}},{"type":"Feature","geometry":{"type":"LineString","coordinates":[[-99.1486814,19.4122742],[-99.1484669,19.413528]]},"properties":{"highway":"secondary","lanes":"2","name":"Avenida Doctor Jos\u00e9 Mar\u00eda V\u00e9rtiz","oneway":"yes","surface":"asphalt","id":856087852}},{"type":"Feature","geometry":{"type":"LineString","coordinates":[[-99.1489897,19.411184],[-99.1490401,19.4109022],[-99.1492168,19.4099141]]},"properties":{"highway":"secondary","lanes":"2","name":"Avenida Doctor Jos\u00e9 Mar\u00eda V\u00e9rtiz","oneway":"yes","surface":"asphalt","id":856087853}},{"type":"Feature","geometry":{"type":"LineString","coordinates":[[-99.1491198,19.4099055],[-99.1488803,19.4111743]]},"properties":{"highway":"secondary","lanes":"2","name":"Avenida Doctor Jos\u00e9 Mar\u00eda V\u00e9rtiz","oneway":"yes","surface":"asphalt","id":856087854}},{"type":"Feature","geometry":{"type":"LineString","coordinates":[[-99.1482273,19.4154929],[-99.1482358,19.4154395],[-99.1483749,19.4146215]]},"properties":{"bus:lanes":"designated||","highway":"secondary","lanes":"3","name":"Avenida Doctor Jos\u00e9 Mar\u00eda V\u00e9rtiz","oneway":"yes","surface":"asphalt","id":856092862}},{"type":"Feature","geometry":{"type":"LineString","coordinates":[[-99.1481089,19.4154832],[-99.1481015,19.415526],[-99.1480917,19.4155823],[-99.1479593,19.4163484]]},"properties":{"highway":"secondary","lanes":"2","name":"Avenida Doctor Jos\u00e9 Mar\u00eda V\u00e9rtiz","oneway":"yes","surface":"asphalt","id":856092863}},{"type":"Feature","geometry":{"type":"LineString","coordinates":[[-99.1482747,19.4146151],[-99.1481248,19.4153921],[-99.1481193,19.4154236],[-99.1481089,19.4154832]]},"properties":{"highway":"secondary","lanes":"3","name":"Avenida Doctor Jos\u00e9 Mar\u00eda V\u00e9rtiz","oneway":"yes","surface":"asphalt","id":856092864}},{"type":"Feature","geometry":{"type":"LineString","coordinates":[[-99.1480754,19.4163596],[-99.1482031,19.4156333],[-99.1482092,19.4155983],[-99.1482196,19.4155362],[-99.1482273,19.4154929]]},"properties":{"highway":"secondary","lanes":"2","name":"Avenida Doctor Jos\u00e9 Mar\u00eda V\u00e9rtiz","oneway":"yes","surface":"asphalt","id":856092865}},{"type":"Feature","geometry":{"type":"LineString","coordinates":[[-99.1477595,19.4180859],[-99.1479096,19.4172712]]},"properties":{"highway":"secondary","lanes":"2","name":"Avenida Doctor Jos\u00e9 Mar\u00eda V\u00e9rtiz","oneway":"yes","surface":"asphalt","id":856092866}},{"type":"Feature","geometry":{"type":"LineString","coordinates":[[-99.1478053,19.4172599],[-99.1476668,19.4180768]]},"properties":{"highway":"secondary","lanes":"2","name":"Avenida Doctor Jos\u00e9 Mar\u00eda V\u00e9rtiz","oneway":"yes","surface":"asphalt","id":856092867}},{"type":"Feature","geometry":{"type":"LineString","coordinates":[[-99.1475582,19.4192147],[-99.1477595,19.4180859]]},"properties":{"highway":"secondary","lanes":"2","name":"Avenida Doctor Jos\u00e9 Mar\u00eda V\u00e9rtiz","oneway":"yes","surface":"asphalt","id":856092868}},{"type":"Feature","geometry":{"type":"LineString","coordinates":[[-99.1476668,19.4180768],[-99.1474647,19.4192064]]},"properties":{"highway":"secondary","lanes":"2","name":"Avenida Doctor Jos\u00e9 Mar\u00eda V\u00e9rtiz","oneway":"yes","surface":"asphalt","id":856092869}},{"type":"Feature","geometry":{"type":"LineString","coordinates":[[-99.1375374,19.4147287],[-99.1376457,19.4147697],[-99.1386962,19.4148489],[-99.1409863,19.4149993],[-99.1411004,19.4150068],[-99.1436981,19.4151938],[-99.1437163,19.4151951],[-99.1437541,19.4151984],[-99.1438332,19.4152032],[-99.1439108,19.4152092],[-99.1450589,19.4152889],[-99.1463816,19.4153804],[-99.1465466,19.415392],[-99.1480012,19.4155174],[-99.1480359,19.4155204],[-99.1481015,19.415526],[-99.1482196,19.4155362],[-99.1482816,19.4155416],[-99.1495138,19.4156188],[-99.1495855,19.4156247],[-99.1496319,19.4156262],[-99.1507154,19.4157143],[-99.150889,19.41573],[-99.1526552,19.4158772],[-99.1527712,19.415887],[-99.1535842,19.4159547],[-99.1543511,19.4160171]]},"properties":{"access":"no","bus":"designated","highway":"service","lanes":"1","oneway":"yes","surface":"asphalt","id":865459155}},{"type":"Feature","geometry":{"type":"LineString","coordinates":[[-99.1467181,19.4145127],[-99.146583,19.4152075],[-99.1465541,19.4153569],[-99.1465466,19.415392],[-99.1463916,19.4161974]]},"properties":{"highway":"residential","lanes":"2","name":"Calle Doctor Agust\u00edn Andrade","oneway":"yes","surface":"asphalt","id":865459158}},{"type":"Feature","geometry":{"type":"LineString","coordinates":[[-99.144186,19.4108722],[-99.1441695,19.4111017],[-99.1441446,19.4114172],[-99.1440967,19.4119639],[-99.1440242,19.4125932],[-99.1439601,19.4132244],[-99.1439024,19.4137429],[-99.1438563,19.414184],[-99.1438544,19.4142044],[-99.1438445,19.4142837],[-99.1438032,19.4147228],[-99.1437646,19.4150765],[-99.143757,19.415165],[-99.1437541,19.4151984],[-99.1437203,19.4155692],[-99.1436845,19.4159618],[-99.1435819,19.4169192],[-99.1435414,19.4173379],[-99.1435046,19.4177191],[-99.1434659,19.4181391],[-99.1434525,19.4182822],[-99.1434496,19.4183135],[-99.1434464,19.4183485],[-99.1434077,19.4187333],[-99.1433946,19.4188536]]},"properties":{"access":"no","bus":"designated","highway":"service","oneway":"yes","surface":"asphalt","id":865467996}},{"type":"Feature","geometry":{"type":"LineString","coordinates":[[-99.1434592,19.4188598],[-99.1435376,19.4188666],[-99.1437012,19.4188807]]},"properties":{"highway":"secondary","lanes":"2","name":"Calle Doctor Ildelfonso Velasco","oneway":"yes","surface":"asphalt","id":865473177}},{"type":"Feature","geometry":{"type":"LineString","coordinates":[[-99.1473033,19.4206212],[-99.147309,19.4205898],[-99.1475582,19.4192147]]},"properties":{"highway":"secondary","lanes":"2","name":"Avenida Doctor Jos\u00e9 Mar\u00eda V\u00e9rtiz","oneway":"yes","surface":"asphalt","id":865474674}},{"type":"Feature","geometry":{"type":"LineString","coordinates":[[-99.1474647,19.4192064],[-99.1472222,19.420582]]},"properties":{"highway":"secondary","lanes":"2","name":"Avenida Doctor Jos\u00e9 Mar\u00eda V\u00e9rtiz","oneway":"yes","surface":"asphalt","id":865474675}},{"type":"Feature","geometry":{"type":"LineString","coordinates":[[-99.1444791,19.418941],[-99.1457597,19.4196649]]},"properties":{"highway":"tertiary","lanes":"2","name":"Calle Doctor Claudio Bernard","surface":"asphalt","id":865478984}},{"type":"Feature","geometry":{"type":"LineString","coordinates":[[-99.1469544,19.4204008],[-99.1469624,19.4204239],[-99.1469655,19.4204479],[-99.1469637,19.4204721],[-99.1469566,19.4204968],[-99.1469443,19.4205197],[-99.1469033,19.4205701]]},"properties":{"highway":"tertiary_link","lanes":"1","oneway":"yes","surface":"asphalt","id":865478985}},{"type":"Feature","geometry":{"type":"LineString","coordinates":[[-99.1491232,19.4109088],[-99.1490401,19.4109022]]},"properties":{"highway":"residential","name":"Cerrada Jos\u00e9 Mar\u00eda V\u00e9rtiz","surface":"concrete","id":865478986}},{"type":"Feature","geometry":{"type":"LineString","coordinates":[[-99.1486503,19.4202719],[-99.1485713,19.4206859],[-99.1484549,19.4212659]]},"properties":{"highway":"residential","lanes":"4","name":"Calle Doctor Miguel Francisco Jim\u00e9nez","oneway":"yes","surface":"asphalt","id":865486639}},{"type":"Feature","geometry":{"type":"LineString","coordinates":[[-99.1469544,19.4204008],[-99.1472222,19.420582]]},"properties":{"highway":"tertiary","lanes":"3","lanes:backward":"1","lanes:forward":"2","name":"Calle Doctor Claudio Bernard","surface":"asphalt","id":866371635}},{"type":"Feature","geometry":{"type":"LineString","coordinates":[[-99.1457568,19.4086995],[-99.145777,19.4084574]]},"properties":{"access":"private","highway":"residential","name":"Cerrada G\u00f3mez Santos","surface":"concrete","id":866376714}},{"type":"Feature","geometry":{"type":"LineString","coordinates":[[-99.1367109,19.4142264],[-99.1367505,19.4142833],[-99.1374493,19.414702],[-99.1375374,19.4147287]]},"properties":{"access":"no","bus":"designated","highway":"service","lanes":"1","oneway":"yes","surface":"asphalt","id":866393804}},{"type":"Feature","geometry":{"type":"LineString","coordinates":[[-99.1388135,19.413846],[-99.138734,19.41384],[-99.1368592,19.4137072],[-99.1367748,19.4137366]]},"properties":{"access":"no","bus":"designated","highway":"service","lanes":"1","oneway":"yes","surface":"asphalt","id":866398741}},{"type":"Feature","geometry":{"type":"LineString","coordinates":[[-99.1357565,19.421922],[-99.1358162,19.4207856],[-99.1359023,19.4195536],[-99.1360047,19.418877],[-99.1361259,19.4181768],[-99.1361463,19.4180162],[-99.1361902,19.4176704],[-99.1362694,19.4171466],[-99.1363344,19.4167295],[-99.1363956,19.4163059],[-99.1364657,19.4158337],[-99.1365388,19.4153581],[-99.1366449,19.4146657]]},"properties":{"bicycle":"yes","highway":"residential","lanes":"2","name":"Calle 5 de Febrero","oneway":"yes","sidewalk":"both","surface":"asphalt","id":866398742}},{"type":"Feature","geometry":{"type":"LineString","coordinates":[[-99.1367748,19.4137366],[-99.1368555,19.4132548],[-99.1369267,19.4127712],[-99.1369939,19.4123143]]},"properties":{"bicycle":"yes","highway":"residential","lanes":"2","name":"Calle 5 de Febrero","oneway":"yes","sidewalk":"both","surface":"asphalt","id":866404839}},{"type":"Feature","geometry":{"type":"LineString","coordinates":[[-99.1366449,19.4146657],[-99.1367021,19.4142853],[-99.1367109,19.4142264],[-99.1367748,19.4137366]]},"properties":{"bicycle":"yes","highway":"residential","lanes":"3","name":"Calle 5 de Febrero","oneway":"yes","sidewalk":"both","surface":"asphalt","id":866404840}},{"type":"Feature","geometry":{"type":"LineString","coordinates":[[-99.1438544,19.4142044],[-99.1438104,19.4141995],[-99.1412433,19.4140184],[-99.1388135,19.413846]]},"properties":{"access":"no","bus":"designated","highway":"service","lanes":"1","oneway":"yes","surface":"asphalt","id":866417743}},{"type":"Feature","geometry":{"type":"LineString","coordinates":[[-99.1403115,19.4203921],[-99.1403723,19.4199898],[-99.1403922,19.4198579],[-99.1405825,19.4185989]]},"properties":{"highway":"tertiary","lanes":"4","name":"Calle Sim\u00f3n Bol\u00edvar","oneway":"yes","surface":"asphalt","id":866417744}},{"type":"Feature","geometry":{"type":"LineString","coordinates":[[-99.1463237,19.4077541],[-99.147101,19.4077209],[-99.1474087,19.4077057],[-99.1479681,19.4076882]]},"properties":{"highway":"residential","lanes":"2","name":"Calle \u00c1ngel del Campo","oneway":"yes","surface":"asphalt","id":866421784}},{"type":"Feature","geometry":{"type":"LineString","coordinates":[[-99.1380397,19.4203919],[-99.1379719,19.421014]]},"properties":{"highway":"tertiary","lanes":"4","name":"Calle Isabel la Cat\u00f3lica","oneway":"yes","surface":"asphalt","turn:lanes":"left;through|through|through|through","id":866439042}},{"type":"Feature","geometry":{"type":"LineString","coordinates":[[-99.1395925,19.4072901],[-99.1394909,19.4072794],[-99.1387843,19.4072051]]},"properties":{"highway":"service","surface":"concrete","id":866439044}},{"type":"Feature","geometry":{"type":"LineString","coordinates":[[-99.1433946,19.4188536],[-99.1433464,19.4193415],[-99.1432709,19.4202127],[-99.1432634,19.4202997],[-99.1432086,19.4208984],[-99.1431614,19.4214972],[-99.1430868,19.4221745],[-99.1430763,19.4222838],[-99.1430102,19.4226874],[-99.1430012,19.4227383],[-99.1428311,19.4234425],[-99.1427567,19.4237296],[-99.1425877,19.4244009],[-99.1425365,19.4246039],[-99.1425253,19.4246508],[-99.1424865,19.4248034],[-99.1423416,19.4253944],[-99.1421798,19.4259665],[-99.1420345,19.426569],[-99.1419451,19.4269243],[-99.1419324,19.4269867],[-99.1418521,19.4274145],[-99.1418929,19.4274486]]},"properties":{"access":"no","bus":"designated","highway":"service","oneway":"yes","surface":"asphalt","id":866443022}},{"type":"Feature","geometry":{"type":"LineString","coordinates":[[-99.1393555,19.4203462],[-99.1392412,19.4211374]]},"properties":{"highway":"residential","name":"Calle Cadena","oneway":"yes","surface":"asphalt","id":866447043}},{"type":"Feature","geometry":{"type":"LineString","coordinates":[[-99.1359513,19.418098],[-99.1361259,19.4181768]]},"properties":{"highway":"secondary","lanes":"3","name":"Calle Lorenzo Boturini","oneway":"yes","surface":"asphalt","id":866450575}},{"type":"Feature","geometry":{"type":"LineString","coordinates":[[-99.1345438,19.4180319],[-99.1361259,19.4181768]]},"properties":{"highway":"secondary","lanes":"2","name":"Calle Lorenzo Boturini","oneway":"yes","surface":"asphalt","id":866450576}},{"type":"Feature","geometry":{"type":"LineString","coordinates":[[-99.1449424,19.4040194],[-99.1449384,19.4040568],[-99.1447735,19.4055731],[-99.1446,19.4071071],[-99.1446539,19.4071781]]},"properties":{"access":"no","bus":"designated","highway":"service","lanes":"1","oneway":"yes","surface":"asphalt","id":866475445}},{"type":"Feature","geometry":{"type":"LineString","coordinates":[[-99.1474087,19.4077057],[-99.1473542,19.4082907]]},"properties":{"highway":"residential","name":"Calle Bolivia","surface":"paving_stones","id":866700911}},{"type":"Feature","geometry":{"type":"LineString","coordinates":[[-99.1495111,19.4095505],[-99.1495162,19.4094792]]},"properties":{"covered":"yes","highway":"service","surface":"concrete","id":866713118}},{"type":"Feature","geometry":{"type":"LineString","coordinates":[[-99.1495162,19.4094792],[-99.1495186,19.4094555],[-99.1495143,19.4094323],[-99.1494982,19.4094143],[-99.1494746,19.4094065],[-99.1493096,19.4093951]]},"properties":{"highway":"service","surface":"concrete","id":866713119}},{"type":"Feature","geometry":{"type":"LineString","coordinates":[[-99.1492846,19.4095353],[-99.1494744,19.4095628],[-99.1494974,19.4095626],[-99.1495111,19.4095505]]},"properties":{"highway":"service","surface":"concrete","id":866713120}},{"type":"Feature","geometry":{"type":"LineString","coordinates":[[-99.1351734,19.4129402],[-99.1348725,19.4129055]]},"properties":{"highway":"footway","layer":"-1","tunnel":"yes","id":866761295}},{"type":"Feature","geometry":{"type":"LineString","coordinates":[[-99.135161,19.4130487],[-99.1351734,19.4129402]]},"properties":{"highway":"steps","id":866788854}},{"type":"Feature","geometry":{"type":"LineString","coordinates":[[-99.1354152,19.4117081],[-99.1353254,19.4116972]]},"properties":{"highway":"footway","id":866791417}},{"type":"Feature","geometry":{"type":"LineString","coordinates":[[-99.1360357,19.4070097],[-99.1364166,19.4070514],[-99.1364409,19.407048],[-99.1364602,19.4070337],[-99.1364693,19.4070122],[-99.1364712,19.4069974],[-99.1364678,19.4069744],[-99.1364525,19.406956],[-99.1364296,19.4069474],[-99.1360508,19.4069049]]},"properties":{"highway":"service","oneway":"yes","surface":"concrete","id":866797649}},{"type":"Feature","geometry":{"type":"LineString","coordinates":[[-99.1357542,19.4076281],[-99.1356589,19.4076174]]},"properties":{"highway":"footway","id":866797651}},{"type":"Feature","geometry":{"type":"LineString","coordinates":[[-99.1356589,19.4076174],[-99.1356629,19.4075864]]},"properties":{"highway":"steps","id":866797652}},{"type":"Feature","geometry":{"type":"LineString","coordinates":[[-99.1360317,19.4076557],[-99.1360346,19.407634]]},"properties":{"highway":"steps","id":866797653}},{"type":"Feature","geometry":{"type":"LineString","coordinates":[[-99.1359107,19.4089016],[-99.1358677,19.4088969]]},"properties":{"highway":"footway","id":866797654}},{"type":"Feature","geometry":{"type":"LineString","coordinates":[[-99.1359138,19.4088567],[-99.1359107,19.4089016]]},"properties":{"highway":"steps","id":866797655}},{"type":"Feature","geometry":{"type":"LineString","coordinates":[[-99.1441427,19.4189189],[-99.1441722,19.4188955],[-99.1441937,19.4188665],[-99.1442017,19.4188374],[-99.1442024,19.4188064],[-99.1442002,19.418769]]},"properties":{"highway":"secondary_link","lanes":"1","oneway":"yes","surface":"asphalt","id":867019285}},{"type":"Feature","geometry":{"type":"LineString","coordinates":[[-99.137444,19.4076884],[-99.1376773,19.4076709]]},"properties":{"alt_name":"Eje 3 Sur;Eje Vial 3 Sur","highway":"primary","lanes":"6","name":"Jos\u00e9 Pe\u00f3n Contreras","oneway":"yes","ref":"EJE 3 SUR","surface":"asphalt","id":867053678}},{"type":"Feature","geometry":{"type":"LineString","coordinates":[[-99.1376834,19.4076244],[-99.1374394,19.4076395]]},"properties":{"access":"no","bus":"designated","highway":"service","lanes":"1","oneway":"yes","surface":"concrete","id":867062676}},{"type":"Feature","geometry":{"type":"LineString","coordinates":[[-99.1374394,19.4076395],[-99.1365,19.4077173],[-99.1363806,19.4077413],[-99.1362659,19.407775],[-99.1361577,19.4078175],[-99.1360425,19.4078698],[-99.1354833,19.4082015],[-99.1353493,19.4082836],[-99.1352796,19.4083192],[-99.135211,19.4083428],[-99.1350893,19.4083668],[-99.134787,19.4083889],[-99.1342921,19.408418],[-99.1337833,19.4084532]]},"properties":{"access":"no","bridge":"yes","bus":"designated","highway":"service","lanes":"1","layer":"1","oneway":"yes","surface":"concrete","id":867062678}},{"type":"Feature","geometry":{"type":"LineString","coordinates":[[-99.1354027,19.4087932],[-99.1354554,19.4088015]]},"properties":{"highway":"footway","id":867065313}},{"type":"Feature","geometry":{"type":"LineString","coordinates":[[-99.1359138,19.4088567],[-99.1354085,19.4087686]]},"properties":{"highway":"footway","layer":"-1","tunnel":"yes","id":867065314}},{"type":"Feature","geometry":{"type":"LineString","coordinates":[[-99.1494925,19.4198813],[-99.1498612,19.4199099]]},"properties":{"highway":"residential","id":883234994}},{"type":"Feature","geometry":{"type":"LineString","coordinates":[[-99.1493427,19.4193633],[-99.1493274,19.4194432],[-99.1492926,19.4196165],[-99.14922,19.4196751],[-99.1491883,19.419732],[-99.1491504,19.4199453]]},"properties":{"highway":"residential","id":883234995}},{"type":"Feature","geometry":{"type":"LineString","coordinates":[[-99.1495198,19.4196604],[-99.1492926,19.4196165]]},"properties":{"highway":"residential","id":883234996}},{"type":"Feature","geometry":{"type":"LineString","coordinates":[[-99.1496267,19.4193896],[-99.1495924,19.4194766],[-99.1495198,19.4196604],[-99.1494925,19.4198813],[-99.1494709,19.4200554]]},"properties":{"highway":"residential","id":883234997}},{"type":"Feature","geometry":{"type":"LineString","coordinates":[[-99.1448931,19.415034],[-99.1448662,19.4149537],[-99.144824,19.4149246],[-99.1446805,19.4149069]]},"properties":{"highway":"service","id":885812870}},{"type":"Feature","geometry":{"type":"LineString","coordinates":[[-99.1450643,19.4152548],[-99.1449675,19.4151219],[-99.1448931,19.415034],[-99.1448615,19.4150865],[-99.14483,19.4151011],[-99.1444856,19.415096]]},"properties":{"highway":"service","id":885812871}},{"type":"Feature","geometry":{"type":"LineString","coordinates":[[-99.1444814,19.4152143],[-99.1444834,19.4151694],[-99.1444856,19.415096],[-99.1444927,19.4148569]]},"properties":{"highway":"service","id":885812872}},{"type":"Feature","geometry":{"type":"LineString","coordinates":[[-99.1361806,19.419877],[-99.1361403,19.4202211]]},"properties":{"highway":"service","id":885826033}},{"type":"Feature","geometry":{"type":"LineString","coordinates":[[-99.1358162,19.4207856],[-99.1359727,19.4206751],[-99.1360961,19.4206233],[-99.1361403,19.4202211],[-99.1367465,19.4202413]]},"properties":{"highway":"service","id":885826034}},{"type":"Feature","geometry":{"type":"LineString","coordinates":[[-99.1484319,19.4115456],[-99.1475639,19.4114912],[-99.1475435,19.4116198]]},"properties":{"highway":"service","id":887767764}},{"type":"Feature","geometry":{"type":"LineString","coordinates":[[-99.1482532,19.4107986],[-99.1482639,19.4105469],[-99.1481043,19.4105425]]},"properties":{"highway":"service","id":887767765}},{"type":"Feature","geometry":{"type":"LineString","coordinates":[[-99.1484227,19.4116709],[-99.1475435,19.4116198],[-99.1473562,19.411609],[-99.1472721,19.4116039]]},"properties":{"highway":"service","id":887767769}},{"type":"Feature","geometry":{"type":"LineString","coordinates":[[-99.1484115,19.4118238],[-99.1483887,19.4119415],[-99.1476551,19.4118947]]},"properties":{"highway":"service","id":887767770}},{"type":"Feature","geometry":{"type":"LineString","coordinates":[[-99.1487529,19.4118689],[-99.1486559,19.411854],[-99.1484115,19.4118238],[-99.1484227,19.4116709],[-99.1484319,19.4115456],[-99.1484477,19.4113318],[-99.147757,19.4113014]]},"properties":{"highway":"service","id":887767771}},{"type":"Feature","geometry":{"type":"LineString","coordinates":[[-99.1477093,19.4110713],[-99.1477147,19.4110111],[-99.1477382,19.4107303]]},"properties":{"highway":"service","id":887767772}},{"type":"Feature","geometry":{"type":"LineString","coordinates":[[-99.1480675,19.4110945],[-99.1480728,19.4110317],[-99.1481043,19.4105425]]},"properties":{"highway":"service","id":887767773}},{"type":"Feature","geometry":{"type":"LineString","coordinates":[[-99.1495578,19.4087877],[-99.1496068,19.4084951],[-99.1496033,19.408463],[-99.1495834,19.4084368],[-99.1495523,19.4084234],[-99.1494854,19.4084124]]},"properties":{"highway":"service","id":887837190}},{"type":"Feature","geometry":{"type":"LineString","coordinates":[[-99.149884,19.4088311],[-99.1495578,19.4087877],[-99.1494167,19.4087684]]},"properties":{"highway":"service","id":887837191}},{"type":"Feature","geometry":{"type":"LineString","coordinates":[[-99.1469006,19.4135523],[-99.1464562,19.4135249],[-99.1464326,19.4135173],[-99.1464163,19.4134995],[-99.1464118,19.4134763],[-99.1464226,19.4133544]]},"properties":{"highway":"service","id":887837192}},{"type":"Feature","geometry":{"type":"LineString","coordinates":[[-99.147456,19.4106379],[-99.1473299,19.4106162],[-99.1467606,19.4105368]]},"properties":{"highway":"residential","id":890555662}},{"type":"Feature","geometry":{"type":"LineString","coordinates":[[-99.1460256,19.4126295],[-99.1454999,19.4125876]]},"properties":{"highway":"service","id":895487362}},{"type":"Feature","geometry":{"type":"LineString","coordinates":[[-99.1437542,19.4159679],[-99.1436845,19.4159618],[-99.1434265,19.4159389]]},"properties":{"highway":"residential","lanes":"2","name":"Calle Manuel Guti\u00e9rrez N\u00e1jera","oneway":"yes","surface":"asphalt","id":903579908}},{"type":"Feature","geometry":{"type":"LineString","coordinates":[[-99.1437931,19.4155748],[-99.1437542,19.4159679]]},"properties":{"alt_name":"Ni\u00f1o Perdido;Eje Central","cycleway:right":"track","highway":"primary","lanes":"4","name":"Avenida L\u00e1zaro C\u00e1rdenas","oneway":"yes","ref":"EJE CENTRAL","surface":"asphalt","trolley_wire":"yes","id":903579909}},{"type":"Feature","geometry":{"type":"LineString","coordinates":[[-99.143928,19.414291],[-99.1438816,19.4147282],[-99.1438456,19.4150804],[-99.1438364,19.4151706],[-99.1438332,19.4152032],[-99.1437931,19.4155748]]},"properties":{"alt_name":"Ni\u00f1o Perdido;Eje Central","cycleway:right":"track","highway":"primary","lanes":"4","name":"Avenida L\u00e1zaro C\u00e1rdenas","oneway":"yes","ref":"EJE CENTRAL","surface":"asphalt","trolley_wire":"yes","id":903579910}},{"type":"Feature","geometry":{"type":"LineString","coordinates":[[-99.1445194,19.4084882],[-99.1441588,19.4084867]]},"properties":{"highway":"residential","lanes":"2","name":"Calle Fray Juan de Torquemada","oneway":"yes","surface":"asphalt","id":903582457}},{"type":"Feature","geometry":{"type":"LineString","coordinates":[[-99.1445898,19.4078006],[-99.1445194,19.4084882]]},"properties":{"alt_name":"Ni\u00f1o Perdido;Eje Central","bus:lanes":"||||designated","busway":"opposite_lane","busway:right":"lane","cycleway:right":"track","highway":"primary","lanes":"5","name":"Avenida L\u00e1zaro C\u00e1rdenas","oneway":"yes","ref":"EJE CENTRAL","surface":"asphalt","trolley_wire":"yes","id":903582458}},{"type":"Feature","geometry":{"type":"LineString","coordinates":[[-99.1446539,19.4071781],[-99.1446428,19.4072825],[-99.1445898,19.4078006]]},"properties":{"alt_name":"Ni\u00f1o Perdido;Eje Central","bus:lanes":"||||designated","busway":"opposite_lane","busway:right":"lane","cycleway:right":"track","highway":"primary","lanes":"5","name":"Avenida L\u00e1zaro C\u00e1rdenas","oneway":"yes","ref":"EJE CENTRAL","surface":"asphalt","trolley_wire":"yes","id":903582459}},{"type":"Feature","geometry":{"type":"LineString","coordinates":[[-99.144817,19.4055784],[-99.1446539,19.4071781]]},"properties":{"alt_name":"Ni\u00f1o Perdido;Eje Central","cycleway:right":"track","highway":"primary","lanes":"4","name":"Avenida L\u00e1zaro C\u00e1rdenas","oneway":"yes","ref":"EJE CENTRAL","surface":"asphalt","trolley_wire":"yes","id":903585157}},{"type":"Feature","geometry":{"type":"LineString","coordinates":[[-99.1482886,19.4154979],[-99.1482816,19.4155416],[-99.1482716,19.4156068],[-99.1482092,19.4155983],[-99.1480917,19.4155823],[-99.1480279,19.4155736],[-99.1480359,19.4155204],[-99.1480429,19.4154779],[-99.1480522,19.4154145],[-99.1481193,19.4154236],[-99.1482358,19.4154395],[-99.148296,19.4154477],[-99.1482886,19.4154979]]},"properties":{"footway":"crossing","highway":"footway","id":904254040}},{"type":"Feature","geometry":{"type":"LineString","coordinates":[[-99.1433114,19.4203048],[-99.1432634,19.4202997],[-99.1430826,19.4202803]]},"properties":{"highway":"residential","lanes":"2","name":"Calle Fernando de Alva Ixtlilx\u00f3chitl","oneway":"yes","surface":"asphalt","id":904268993}},{"type":"Feature","geometry":{"type":"LineString","coordinates":[[-99.1433433,19.4199934],[-99.1433209,19.4202123],[-99.1433114,19.4203048]]},"properties":{"alt_name":"Ni\u00f1o Perdido;Eje Central","highway":"primary","lanes":"4","name":"Avenida L\u00e1zaro C\u00e1rdenas","oneway":"yes","ref":"EJE CENTRAL","surface":"asphalt","trolley_wire":"yes","id":904268994}},{"type":"Feature","geometry":{"type":"LineString","coordinates":[[-99.1434592,19.4188598],[-99.1434094,19.4193468]]},"properties":{"alt_name":"Ni\u00f1o Perdido;Eje Central","highway":"primary","lanes":"4","name":"Avenida L\u00e1zaro C\u00e1rdenas","oneway":"yes","ref":"EJE CENTRAL","surface":"asphalt","trolley_wire":"yes","id":904268995}},{"type":"Feature","geometry":{"type":"LineString","coordinates":[[-99.1434094,19.4193468],[-99.1433433,19.4199934]]},"properties":{"alt_name":"Ni\u00f1o Perdido;Eje Central","highway":"primary","lanes":"4","name":"Avenida L\u00e1zaro C\u00e1rdenas","oneway":"yes","ref":"EJE CENTRAL","surface":"asphalt","trolley_wire":"yes","id":904270696}},{"type":"Feature","geometry":{"type":"LineString","coordinates":[[-99.1437012,19.4188807],[-99.1441427,19.4189189],[-99.1444791,19.418941]]},"properties":{"highway":"secondary","lanes":"2","name":"Calle Doctor Ildelfonso Velasco","oneway":"yes","surface":"asphalt","id":904271298}},{"type":"Feature","geometry":{"type":"LineString","coordinates":[[-99.1435146,19.4183179],[-99.1434592,19.4188598]]},"properties":{"alt_name":"Ni\u00f1o Perdido;Eje Central","cycleway:right":"track","highway":"primary","lanes":"4","name":"Avenida L\u00e1zaro C\u00e1rdenas","oneway":"yes","ref":"EJE CENTRAL","surface":"asphalt","trolley_wire":"yes","id":904271299}},{"type":"Feature","geometry":{"type":"LineString","coordinates":[[-99.1445898,19.4078006],[-99.1443023,19.4078103]]},"properties":{"highway":"residential","name":"Calle \u00c1ngel del Campo","oneway":"yes","surface":"asphalt","id":905093794}},{"type":"Feature","geometry":{"type":"LineString","coordinates":[[-99.1443023,19.4078103],[-99.1421416,19.4079141],[-99.1395049,19.4079945],[-99.1376225,19.4080623]]},"properties":{"highway":"residential","name":"Calle \u00c1ngel del Campo","oneway":"yes","surface":"asphalt","id":905093795}},{"type":"Feature","geometry":{"type":"LineString","coordinates":[[-99.1435146,19.4183179],[-99.1434692,19.4187615],[-99.1434592,19.4188598]]},"properties":{"alt_name":"Ni\u00f1o Perdido;Eje Central","cycleway:right":"track","highway":"primary","lanes":"4","name":"L\u00e1zaro C\u00e1rdenas","oneway":"yes","ref":"EJE CENTRAL","surface":"asphalt","trolley_wire":"yes","id":905632797}},{"type":"Feature","geometry":{"type":"LineString","coordinates":[[-99.1488382,19.4135565],[-99.1488252,19.4136281],[-99.1487957,19.4137477]]},"properties":{"highway":"service","id":926519689}},{"type":"Feature","geometry":{"type":"LineString","coordinates":[[-99.1446526,19.4109034],[-99.1445937,19.4109837],[-99.1445159,19.4110479],[-99.1444237,19.4110922],[-99.1443228,19.4111139],[-99.144251,19.4111149]]},"properties":{"alt_name":"Glorieta del T\u00edo Sam","highway":"residential","name":"Calle Doctor M\u00e1rquez","oneway":"yes","surface":"asphalt","id":976442408}},{"type":"Feature","geometry":{"type":"LineString","coordinates":[[-99.1370697,19.4060478],[-99.1368622,19.4076419]]},"properties":{"highway":"residential","lanes":"1","name":"Calle Marcelino D\u00e1valos","oneway":"yes","surface":"asphalt","id":1051388942}}]}