{"type":"FeatureCollection","features":[{"type":"Feature","properties":{"amenity":"pharmacy","healthcare":"pharmacy"},"geometry":{"type":"Point","coordinates":[-99.159789,19.412259]}},{"type":"Feature","properties":{"amenity":"pharmacy","healthcare":"pharmacy"},"geometry":{"type":"Point","coordinates":[-99.1612644,19.411285]}},{"type":"Feature","properties":{"addr:housenumber":"37","addr:postcode":"06700","addr:street":"San Luis Potosi","amenity":"pharmacy","dispensing":"no","healthcare":"pharmacy","name":"Farmacia San Luis"},"geometry":{"type":"Point","coordinates":[-99.1566867,19.4156342]}},{"type":"Feature","properties":{"amenity":"pharmacy","healthcare":"pharmacy"},"geometry":{"type":"Point","coordinates":[-99.1564836,19.4148221]}},{"type":"Feature","properties":{"amenity":"pharmacy","healthcare":"pharmacy","name":"Farmacias UNION de descuento"},"geometry":{"type":"Point","coordinates":[-99.1476537,19.4013886]}},{"type":"Feature","properties":{"amenity":"pharmacy","brand":"Farmacias del Ahorro","brand:wikidata":"Q62086647","healthcare":"pharmacy","name":"Farmacias del Ahorro"},"geometry":{"type":"Point","coordinates":[-99.1553266,19.4060556]}},{"type":"Feature","properties":{"amenity":"pharmacy","brand":"Farmacias Similares","brand:wikidata":"Q62564610","healthcare":"pharmacy","name":"Farmacias Similares"},"geometry":{"type":"Point","coordinates":[-99.1543406,19.4255079]}},{"type":"Feature","properties":{"amenity":"pharmacy","healthcare":"pharmacy"},"geometry":{"type":"Point","coordinates":[-99.1498531,19.4241365]}},{"type":"Feature","properties":{"amenity":"pharmacy","brand":"Farmacias Similares","brand:wikidata":"Q62564610","healthcare":"pharmacy","name":"Farmacias Similares"},"geometry":{"type":"Point","coordinates":[-99.150853,19.4168781]}},{"type":"Feature","properties":{"amenity":"pharmacy","healthcare":"pharmacy"},"geometry":{"type":"Point","coordinates":[-99.1511594,19.4151267]}},{"type":"Feature","properties":{"amenity":"pharmacy","healthcare":"pharmacy","image":"http:\/\/storage6.openstreetcam.org\/files\/photo\/2017\/10\/6\/lth\/933633_d82ed_17.jpg","name":"Farmacia Medimart","source":"survey","survey:date":"2017-10-06"},"geometry":{"type":"Point","coordinates":[-99.1557785,19.4020077]}},{"type":"Feature","properties":{"amenity":"pharmacy","healthcare":"pharmacy","name":"Jana","opening_hours":"Mo-Sa 09:00-21:00; Su 09:00-15:00"},"geometry":{"type":"Point","coordinates":[-99.1576824,19.4204619]}},{"type":"Feature","properties":{"addr:street":"Alvaro Obregon","amenity":"pharmacy","healthcare":"pharmacy","name":"Pharma Club"},"geometry":{"type":"Point","coordinates":[-99.1588509,19.4186985]}},{"type":"Feature","properties":{"amenity":"pharmacy","healthcare":"pharmacy","name":"Farmacia del Mercado"},"geometry":{"type":"Point","coordinates":[-99.1618853,19.4095046]}}]}