{"type":"FeatureCollection","features":[{"type":"Feature","properties":{"highway":"traffic_signals"},"geometry":{"type":"Point","coordinates":[-99.1437542,19.4159679]}},{"type":"Feature","properties":{"highway":"traffic_signals"},"geometry":{"type":"Point","coordinates":[-99.1436574,19.416925]}},{"type":"Feature","properties":{"highway":"traffic_signals"},"geometry":{"type":"Point","coordinates":[-99.1435748,19.4177242]}},{"type":"Feature","properties":{"amenity":"school","name":"Escuela de Cultura Popular M\u00e1rtires del 68","website":"http:\/\/ecpm68.com\/"},"geometry":{"type":"Point","coordinates":[-99.1365234,19.4166633]}},{"type":"Feature","properties":{"amenity":"pharmacy","healthcare":"pharmacy"},"geometry":{"type":"Point","coordinates":[-99.138263,19.4171737]}},{"type":"Feature","properties":{"amenity":"pharmacy","healthcare":"pharmacy"},"geometry":{"type":"Point","coordinates":[-99.1385366,19.4174848]}},{"type":"Feature","properties":{"addr:housenumber":"122","addr:street":"Juan Lucas Lassaga","amenity":"theatre","name":"Centro Cultural Carreterra 45"},"geometry":{"type":"Point","coordinates":[-99.136873,19.4168651]}},{"type":"Feature","properties":{"addr:housenumber":"291","addr:postcode":"06800","addr:street":"Bol\u00edvar","amenity":"bar","name":"Barba Azul"},"geometry":{"type":"Point","coordinates":[-99.1412026,19.4158962]}},{"type":"Feature","properties":{"amenity":"pharmacy","healthcare":"pharmacy","name":"Farmacias Farmapronto"},"geometry":{"type":"Point","coordinates":[-99.1384614,19.4182508]}},{"type":"Feature","properties":{"addr:housenumber":"42","addr:street":"Alfredo Chavero","amenity":"bar","internet_access":"wlan","name":"La Quebrada","name:es":"La Quebrada"},"geometry":{"type":"Point","coordinates":[-99.1410752,19.4176015]}},{"type":"Feature","properties":{"addr:street":"Alfredo Chavero","amenity":"restaurant","cuisine":"japanese","name":"Nigiri Sushi","name:es":"Nigiri Sushi"},"geometry":{"type":"Point","coordinates":[-99.140999,19.4175978]}},{"type":"Feature","properties":{"highway":"bus_stop","name":"Manuel Jos\u00e9 Oth\u00f3n","network":"Servicio de Transportes El\u00e9ctricos","operator":"Troleb\u00fas"},"geometry":{"type":"Point","coordinates":[-99.143766,19.414959]}},{"type":"Feature","properties":{"highway":"bus_stop","name":"Dr. Aceves","network":"Servicio de Transportes El\u00e9ctricos","operator":"Troleb\u00fas"},"geometry":{"type":"Point","coordinates":[-99.143964,19.41482]}},{"type":"Feature","properties":{"highway":"bus_stop","name":"Eje Central","network":"Servicio de Transportes El\u00e9ctricos","operator":"Troleb\u00fas"},"geometry":{"type":"Point","coordinates":[-99.1434887,19.4152021]}},{"type":"Feature","properties":{"amenity":"bar","name":"La Catedral Del Pulque","name:es":"La Catedral Del Pulque"},"geometry":{"type":"Point","coordinates":[-99.1380083,19.4184861]}},{"type":"Feature","properties":{"amenity":"place_of_worship","name":"Iglesia Boturini"},"geometry":{"type":"Point","coordinates":[-99.1399516,19.4189365]}},{"type":"Feature","properties":{"addr:city":"Venustiano Carranza","addr:housenumber":"61","addr:postcode":"15900","addr:street":"Lorenzo Boturini","amenity":"marketplace","name":"Comercializadora Vinocors","phone":"+52 55 5578 5649"},"geometry":{"type":"Point","coordinates":[-99.1389806,19.4181888]}},{"type":"Feature","properties":{"bus":"yes","highway":"bus_stop","name":"Dr. Velasco","network":"Corredor Cero Emisiones Eje Central","operator":"Servicio de Transportes El\u00e9ctricos","public_transport":"platform"},"geometry":{"type":"Point","coordinates":[-99.1435308,19.4191176]}},{"type":"Feature","properties":{"bus":"yes","highway":"bus_stop","name":"Alfredo Chavero","network":"Corredor Cero Emisiones Eje Central","operator":"Servicio de Transportes El\u00e9ctricos","public_transport":"platform"},"geometry":{"type":"Point","coordinates":[-99.1434908,19.4174787]}},{"type":"Feature","properties":{"highway":"traffic_signals"},"geometry":{"type":"Point","coordinates":[-99.1410853,19.4151111]}},{"type":"Feature","properties":{"highway":"traffic_signals"},"geometry":{"type":"Point","coordinates":[-99.1409863,19.4149993]}},{"type":"Feature","properties":{"highway":"traffic_signals"},"geometry":{"type":"Point","coordinates":[-99.1411734,19.4149838]}},{"type":"Feature","properties":{"highway":"traffic_signals"},"geometry":{"type":"Point","coordinates":[-99.1439778,19.4151794]}},{"type":"Feature","properties":{"highway":"traffic_signals"},"geometry":{"type":"Point","coordinates":[-99.1436981,19.4151938]}},{"type":"Feature","properties":{"highway":"traffic_signals"},"geometry":{"type":"Point","coordinates":[-99.1439036,19.4152802]}},{"type":"Feature","properties":{"highway":"traffic_signals"},"geometry":{"type":"Point","coordinates":[-99.1438456,19.4150804]}},{"type":"Feature","properties":{"highway":"traffic_signals"},"geometry":{"type":"Point","coordinates":[-99.1437646,19.4150765]}},{"type":"Feature","properties":{"highway":"traffic_signals"},"geometry":{"type":"Point","coordinates":[-99.1439889,19.4143805]}},{"type":"Feature","properties":{"highway":"traffic_signals"},"geometry":{"type":"Point","coordinates":[-99.1432816,19.4188393]}},{"type":"Feature","properties":{"highway":"traffic_signals"},"geometry":{"type":"Point","coordinates":[-99.1435262,19.4189687]}},{"type":"Feature","properties":{"highway":"traffic_signals"},"geometry":{"type":"Point","coordinates":[-99.1434692,19.4187615]}},{"type":"Feature","properties":{"highway":"traffic_signals"},"geometry":{"type":"Point","coordinates":[-99.1434077,19.4187333]}},{"type":"Feature","properties":{"highway":"traffic_signals","traffic_signals:direction":"backward"},"geometry":{"type":"Point","coordinates":[-99.1432883,19.4181879]}},{"type":"Feature","properties":{"highway":"traffic_signals"},"geometry":{"type":"Point","coordinates":[-99.1431904,19.4182876]}},{"type":"Feature","properties":{"highway":"traffic_signals","traffic_signals:direction":"forward"},"geometry":{"type":"Point","coordinates":[-99.1436542,19.418411]}},{"type":"Feature","properties":{"highway":"traffic_signals"},"geometry":{"type":"Point","coordinates":[-99.1435745,19.4185199]}},{"type":"Feature","properties":{"highway":"traffic_signals"},"geometry":{"type":"Point","coordinates":[-99.1435315,19.4181528]}},{"type":"Feature","properties":{"highway":"traffic_signals"},"geometry":{"type":"Point","coordinates":[-99.1434659,19.4181391]}}]}