{"type":"FeatureCollection","features":[{"type":"Feature","properties":{"bench":"yes","bin":"no","highway":"bus_stop","lit":"yes","local_ref":"Metrobus Linea 1","name":"El Chopo","shelter":"yes"},"geometry":{"type":"Point","coordinates":[-99.1544361,19.4433426]}},{"type":"Feature","properties":{"bench":"yes","bin":"no","highway":"bus_stop","lit":"yes","local_ref":"Metrobus Linea 1","name":"Buenavista","shelter":"yes"},"geometry":{"type":"Point","coordinates":[-99.1531117,19.4468361]}},{"type":"Feature","properties":{"amenity":"restaurant","name":"El Port\u00f3n"},"geometry":{"type":"Point","coordinates":[-99.15297,19.445993]}},{"type":"Feature","properties":{"crossing":"traffic_signals","highway":"traffic_signals"},"geometry":{"type":"Point","coordinates":[-99.1515904,19.4460392]}},{"type":"Feature","properties":{"amenity":"bicycle_rental","name":"ECOBICI","network":"Ecobici","operator":"Gobierno de la Ciudad de M\u00e9xico"},"geometry":{"type":"Point","coordinates":[-99.1532447,19.4427487]}},{"type":"Feature","properties":{"amenity":"bicycle_rental","name":"ECOBICI","network":"ECOBICI","operator":"Secretar\u00eda del Medio Ambiente de la Ciudad de M\u00e9xico"},"geometry":{"type":"Point","coordinates":[-99.1524722,19.4437098]}},{"type":"Feature","properties":{"amenity":"bicycle_rental","name":"Ecobici","network":"ECOBICI","operator":"Secretar\u00eda del Medio Ambiente de la Ciudad de M\u00e9xico"},"geometry":{"type":"Point","coordinates":[-99.1530462,19.4442865]}},{"type":"Feature","properties":{"amenity":"bicycle_rental","name":"ECOBICI","network":"ECOBICI","operator":"Secretar\u00eda del Medio Ambiente de la Ciudad de M\u00e9xico"},"geometry":{"type":"Point","coordinates":[-99.1522684,19.4436744]}},{"type":"Feature","properties":{"amenity":"fast_food","cuisine":"pizza","name":"Pizza Hot Buenavista"},"geometry":{"type":"Point","coordinates":[-99.1535567,19.4460415]}},{"type":"Feature","properties":{"addr:city":"Ciudad de M\u00e9xico","addr:housenumber":"117","addr:postcode":"06400","addr:street":"Salvador Diaz Mir\u00f3n","amenity":"restaurant","cuisine":"regional","name":"Birria El G\u00fcero"},"geometry":{"type":"Point","coordinates":[-99.1579553,19.4487963]}},{"type":"Feature","properties":{"addr:city":"Ciudad de M\u00e9xico","addr:housenumber":"152","addr:postcode":"06400","addr:street":"Jaime Torres Bodet","amenity":"restaurant","cuisine":"mexican","name":"El Corral del Chivo","opening_hours":"PH,Mo-Su 10:00-21:00+"},"geometry":{"type":"Point","coordinates":[-99.1578261,19.4491015]}},{"type":"Feature","properties":{"amenity":"pharmacy","name":"Farmacia de Descuento"},"geometry":{"type":"Point","coordinates":[-99.1578573,19.4487609]}},{"type":"Feature","properties":{"addr:city":"Ciudad de M\u00e9xico","addr:housenumber":"148","addr:postcode":"06400","addr:street":"Jaime Torres Bodet","amenity":"fast_food","cuisine":"hot_dog","name":"Rock & Dogs","opening_hours":"09:00-20:00"},"geometry":{"type":"Point","coordinates":[-99.1578805,19.448634]}},{"type":"Feature","properties":{"addr:city":"Ciudad de M\u00e9xico","addr:housenumber":"151","addr:postcode":"06400","addr:street":"Jaime Torres Bodet","amenity":"restaurant","cuisine":"fish","name":"La Ribera Santa Mar\u00eda","opening_hours":"09:00-22:00"},"geometry":{"type":"Point","coordinates":[-99.1576087,19.4485047]}},{"type":"Feature","properties":{"addr:city":"Ciudad de M\u00e9xico","addr:housenumber":"104","addr:postcode":"06400","addr:street":"Salvador Diaz Mir\u00f3n","amenity":"restaurant","cuisine":"soul_food","name":"Caf\u00e9 Salvador","opening_hours":"09:00-18:00"},"geometry":{"type":"Point","coordinates":[-99.1574532,19.4486867]}},{"type":"Feature","properties":{"addr:city":"Ciudad de M\u00e9xico","addr:housenumber":"111c","addr:postcode":"06400","addr:street":"Santa Mar\u00eda Ribera","amenity":"restaurant","name":"La Gallina de los Huevos de Oro"},"geometry":{"type":"Point","coordinates":[-99.1572231,19.446797]}},{"type":"Feature","properties":{"addr:city":"Ciudad de M\u00e9xico","addr:housenumber":"96","addr:postcode":"06400","addr:street":"Salvador Diaz Mir\u00f3n","amenity":"cafe","name":"Alameda"},"geometry":{"type":"Point","coordinates":[-99.1567531,19.4485274]}},{"type":"Feature","properties":{"addr:city":"Ciudad de M\u00e9xico","addr:housenumber":"111","addr:postcode":"06400","addr:street":"Santa Mar\u00eda Ribera","amenity":"fast_food","cuisine":"taco","name":"Taquer\u00eda La Rosita","opening_hours":"Mo-Su 10:00-22:00"},"geometry":{"type":"Point","coordinates":[-99.1572712,19.4468058]}},{"type":"Feature","properties":{"addr:city":"Ciudad de M\u00e9xico","addr:housenumber":"111","addr:postcode":"06400","addr:street":"Santa Mar\u00eda Ribera","amenity":"cafe","name":"Caf\u00e9 The News"},"geometry":{"type":"Point","coordinates":[-99.1573056,19.446609]}},{"type":"Feature","properties":{"addr:city":"Ciudad de M\u00e9xico","addr:housenumber":"97","addr:postcode":"06400","addr:street":"Santa Mar\u00eda Ribera","amenity":"restaurant","name":"Restaurante Antonios"},"geometry":{"type":"Point","coordinates":[-99.1573928,19.446142]}},{"type":"Feature","properties":{"addr:city":"Ciudad de M\u00e9xico","addr:housenumber":"112","addr:postcode":"06400","addr:street":"Santa Mar\u00eda Ribera","amenity":"restaurant","name":"Cocina Tadeo","opening_hours":"13:00-18:00"},"geometry":{"type":"Point","coordinates":[-99.1575028,19.4467709]}},{"type":"Feature","properties":{"addr:city":"Ciudad de M\u00e9xico","addr:housenumber":"91","addr:postcode":"06400","addr:street":"Santa Maria Ribera","amenity":"cafe","name":"Cafe con Arte"},"geometry":{"type":"Point","coordinates":[-99.1574532,19.4457629]}},{"type":"Feature","properties":{"addr:city":"Ciudad de M\u00e9xico","addr:housenumber":"92","addr:postcode":"06400","addr:street":"Eje 1 Nte.","amenity":"bar","name":"Pulqueria La Malquerida"},"geometry":{"type":"Point","coordinates":[-99.157966,19.446907]}},{"type":"Feature","properties":{"addr:city":"Ciudad de M\u00e9xico","addr:housenumber":"112-E","addr:postcode":"06400","addr:street":"Santa Mar\u00eda Ribera","amenity":"restaurant","cuisine":"mexican","name":"Tortilleria"},"geometry":{"type":"Point","coordinates":[-99.1572887,19.4467299]}},{"type":"Feature","properties":{"addr:city":"Ciudad de M\u00e9xico","addr:housenumber":"109","addr:postcode":"06400","addr:street":"Jaime Torres Bodet","amenity":"restaurant","cuisine":"mexican","name":"Los Helechos"},"geometry":{"type":"Point","coordinates":[-99.1580888,19.4463067]}},{"type":"Feature","properties":{"amenity":"bicycle_rental","name":"ECOBICI","network":"ECOBICI","operator":"Secretar\u00eda del Medio Ambiente de la Ciudad de M\u00e9xico"},"geometry":{"type":"Point","coordinates":[-99.1523998,19.4439798]}},{"type":"Feature","properties":{"description":"Parada Metrob\u00fas. L\u00ednea 4. Ruta Sur y Ruta Norte","highway":"bus_stop","name":"Delegaci\u00f3n Cuatehmoc"},"geometry":{"type":"Point","coordinates":[-99.1525246,19.4426261]}},{"type":"Feature","properties":{"amenity":"bus_station","name":"Metrob\u00fas Linea 4","operator":"Metrob\u00fas"},"geometry":{"type":"Point","coordinates":[-99.1523096,19.4448305]}},{"type":"Feature","properties":{"addr:city":"Ciudad de M\u00e9xico","addr:housenumber":"col,Buenavista","addr:postcode":"06350","addr:street":"Forum Buenavista , Centro Comercial , eje norte 259 Pb-2,Cuauht\u00e9moc eje 1 norte","amenity":"restaurant","cuisine":"international;mexican","name":"Toks Forum Buenavista","opening_hours":"Mo-Su 07:00-22:00","operator":"Toks","phone":"5255419057","toilets:wheelchair":"yes","website":"https:\/\/www.toks.com.mx\/","wheelchair":"yes","wheelchair:description":"Restaurante Totalmente accesible , estacionamiento , elevador y ba\u00f1os muy espaciosos."},"geometry":{"type":"Point","coordinates":[-99.1523967,19.4478357]}},{"type":"Feature","properties":{"addr:city":"Ciudad de M\u00e9xico","addr:housenumber":"84","addr:postcode":"06400","addr:street":"Salvador Diaz Mir\u00f3n","amenity":"restaurant","cuisine":"mexican","name":"Tlacoyotitlan","opening_hours":"Mo-Su 09:30-22:00"},"geometry":{"type":"Point","coordinates":[-99.1560888,19.4484685]}},{"type":"Feature","properties":{"amenity":"place_of_worship","name":"Templo de la Sagrada Familia","religion":"christian"},"geometry":{"type":"Point","coordinates":[-99.157627,19.4444919]}},{"type":"Feature","properties":{"amenity":"place_of_worship","name":"Padres Josefinos","religion":"christian"},"geometry":{"type":"Point","coordinates":[-99.1575828,19.4447144]}},{"type":"Feature","properties":{"addr:city":"Ciudad de M\u00e9xico","addr:housenumber":"3","addr:street":"Roble","amenity":"theatre","name":"Microteatro M\u00e9xico","phone":"63905046","website":"http:\/\/www.microteatro.mx"},"geometry":{"type":"Point","coordinates":[-99.1537686,19.4458644]}},{"type":"Feature","properties":{"amenity":"restaurant","name":"Wingstop Buenavista"},"geometry":{"type":"Point","coordinates":[-99.1536229,19.4461601]}},{"type":"Feature","properties":{"addr:city":"Ciudad de M\u00e9xico","addr:housenumber":"87","addr:postcode":"06400","addr:street":"Salvador Diaz Mir\u00f3n","amenity":"restaurant","cuisine":"russian","name":"Kolobok","opening_hours":"10:00-21:00","website":"https:\/\/www.kolobok.com.mx\/"},"geometry":{"type":"Point","coordinates":[-99.156198,19.448693]}},{"type":"Feature","properties":{"addr:city":"Ciudad de M\u00e9xico","addr:housenumber":"175","addr:postcode":"06400","addr:street":"Dr. Atl","amenity":"restaurant","cuisine":"mexican;regional","name":"Rosa Camelia","outdoor_seating":"yes"},"geometry":{"type":"Point","coordinates":[-99.1562602,19.4483942]}},{"type":"Feature","properties":{"amenity":"cafe","name":"Huma"},"geometry":{"type":"Point","coordinates":[-99.1561765,19.4487651]}},{"type":"Feature","properties":{"addr:city":"Ciudad de M\u00e9xico","addr:housenumber":"83","addr:postcode":"06400","addr:street":"Dr. Atl","amenity":"restaurant","cuisine":"mexican","name":"Maare"},"geometry":{"type":"Point","coordinates":[-99.1561684,19.4488207]}},{"type":"Feature","properties":{"addr:city":"Ciudad de M\u00e9xico","addr:housenumber":"205","addr:postcode":"06400","addr:street":"Dr. Atl","amenity":"school","name":"Colegio Hispano Americano"},"geometry":{"type":"Point","coordinates":[-99.1560537,19.4492743]}},{"type":"Feature","properties":{"addr:city":"Ciudad de M\u00e9xico","addr:housenumber":"152","addr:postcode":"06400","addr:street":"Jaime Torres Bodet","amenity":"bar","name":"Cantina Sal\u00f3n Paris"},"geometry":{"type":"Point","coordinates":[-99.1578502,19.4489573]}},{"type":"Feature","properties":{"addr:city":"Ciudad de M\u00e9xico","addr:housenumber":"138","addr:postcode":"06400","addr:street":"Santa Mar\u00eda Ribera","amenity":"restaurant","name":"Mar\u00eda Ciento38","opening_hours":"PH,Mo-Su 09:00-22:00"},"geometry":{"type":"Point","coordinates":[-99.1572204,19.4481539]}},{"type":"Feature","properties":{"addr:city":"Ciudad de Mexico","addr:housenumber":"78","addr:postcode":"06400","addr:street":"Eje Vial 1 Norte","amenity":"restaurant","name":"Parrilla H4","opening_hours":"PH,Mo-Su 09:00-22:00"},"geometry":{"type":"Point","coordinates":[-99.156806,19.4467148]}},{"type":"Feature","properties":{"addr:city":"Ciudad de M\u00e9xico","addr:housenumber":"122","addr:postcode":"06400","addr:street":"Santa Mar\u00eda Ribera","amenity":"veterinary","name":"Can-Ito"},"geometry":{"type":"Point","coordinates":[-99.1574103,19.4471744]}},{"type":"Feature","properties":{"addr:city":"Ciudad de M\u00e9xico","addr:housenumber":"141 Local 1","addr:postcode":"06400","addr:street":"Dr. Atl","amenity":"cafe","name":"The Latte Caf\u00e9"},"geometry":{"type":"Point","coordinates":[-99.1565793,19.4466794]}},{"type":"Feature","properties":{"addr:city":"Ciudad de M\u00e9xico","addr:housenumber":"91A","addr:postcode":"06400","addr:street":"Santa Mar\u00eda Ribera","amenity":"restaurant","name":"Pachuca"},"geometry":{"type":"Point","coordinates":[-99.1574699,19.4456627]}},{"type":"Feature","properties":{"addr:city":"Ciudad de M\u00e9xico","addr:housenumber":"85-A","addr:postcode":"06400","addr:street":"Santa Mar\u00eda Ribera","amenity":"restaurant","name":"Huarachy Plus"},"geometry":{"type":"Point","coordinates":[-99.1574873,19.4455514]}},{"type":"Feature","properties":{"addr:city":"Ciudad de M\u00e9xico","addr:housenumber":"85","addr:postcode":"06400","addr:street":"Jaime Torres Bodet","amenity":"pharmacy","name":"Pharma Club, S.A. de C.V.","website":"http:\/\/pharmaclub.com.mx\/"},"geometry":{"type":"Point","coordinates":[-99.1582891,19.4453085]}},{"type":"Feature","properties":{"addr:city":"Ciudad de M\u00e9xico","addr:housenumber":"58","addr:postcode":"06400","addr:street":"Sor Juana In\u00e9s de la Cruz","amenity":"pharmacy","name":"Farmarcia Similares","website":"farmaciasdesimilares.com.mx"},"geometry":{"type":"Point","coordinates":[-99.1576147,19.4449735]}},{"type":"Feature","properties":{"amenity":"car_wash","name":"Regios Auto Clean","opening_hours":"06:15-20:00"},"geometry":{"type":"Point","coordinates":[-99.1581096,19.445067]}},{"type":"Feature","properties":{"addr:city":"Ciudad de M\u00e9xico","addr:housenumber":"51","addr:postcode":"06400","addr:street":"Dr. Enrique Gonz\u00e1lez Mart\u00ednez","amenity":"school","name":"Instituto Am\u00e9ricano Biling\u00fce John F. Kennedy"},"geometry":{"type":"Point","coordinates":[-99.1559946,19.4436064]}},{"type":"Feature","properties":{"addr:city":"Ciudad de M\u00e9xico","addr:housenumber":"72","addr:postcode":"06400","addr:street":"Santa Mar\u00eda Ribera","amenity":"school","name":"Colegio Biling\u00fce Saint Mary"},"geometry":{"type":"Point","coordinates":[-99.1578803,19.4447168]}},{"type":"Feature","properties":{"addr:city":"Ciudad de M\u00e9xico","addr:housenumber":"68","addr:postcode":"06400","addr:street":"Santa Mar\u00eda Ribera","amenity":"school","name":"Primaraia Dr. Nanuel Flores"},"geometry":{"type":"Point","coordinates":[-99.1579097,19.4445574]}},{"type":"Feature","properties":{"addr:city":"Ciudad de M\u00e9xico","addr:housenumber":"61","addr:postcode":"06400","addr:street":"Santa Mar\u00eda Ribera","amenity":"school","name":"Cezar Bilingual School"},"geometry":{"type":"Point","coordinates":[-99.1577515,19.4441477]}},{"type":"Feature","properties":{"addr:city":"Ciudad de M\u00e9xico","addr:housenumber":"67","addr:postcode":"06400","addr:street":"Sor Juana In\u00e9s de la Cruz","amenity":"restaurant","name":"El Comedor de San Pascual Bailongo"},"geometry":{"type":"Point","coordinates":[-99.1582088,19.4452909]}},{"type":"Feature","properties":{"addr:city":"Ciudad de Mexico","addr:housenumber":"58-C","addr:postcode":"06400","addr:street":"Dr. Atl","amenity":"restaurant","name":"El Sazon de Anita"},"geometry":{"type":"Point","coordinates":[-99.1574698,19.4430272]}},{"type":"Feature","properties":{"amenity":"police","name":"Agencia del Ministerio P\u00fablico CUH-5"},"geometry":{"type":"Point","coordinates":[-99.1579601,19.4427457]}},{"type":"Feature","properties":{"amenity":"library","name":"Biblioteca Vasconcelos","name:ja":"\u30f4\u30a1\u30b9\u30b3\u30f3\u30bb\u30ed\u30b9\u56f3\u66f8\u9928\uff08\u30a2\u30eb\u30d9\u30eb\u30c8\u30fb\u30ab\u30e9\u30c1\uff09","opening_hours":"Mo-Su 08:30-19:30","website":"https:\/\/bibliotecavasconcelos.gob.mx\/"},"geometry":{"type":"Point","coordinates":[-99.1508546,19.4464433]}},{"type":"Feature","properties":{"amenity":"library","name":"Porr\u00faa"},"geometry":{"type":"Point","coordinates":[-99.1521957,19.4488005]}},{"type":"Feature","properties":{"addr:city":"Ciudad de M\u00e9xico","addr:housenumber":"131","addr:postcode":"06300","addr:street":"Avenida Insurgentes Nte.","amenity":"restaurant","name":"Vips","website":"https:\/\/vips.com.mx\/"},"geometry":{"type":"Point","coordinates":[-99.1537674,19.444158]}},{"type":"Feature","properties":{"addr:city":"Ciudad de M\u00e9xico","addr:housenumber":"131","addr:postcode":"06300","addr:street":"Avenida Insurgentes Nte.","amenity":"fast_food","brand":"McDonald's","brand:wikidata":"Q38076","brand:wikipedia":"en:McDonald's","cuisine":"burger","name":"McDonald's","takeaway":"yes"},"geometry":{"type":"Point","coordinates":[-99.1531934,19.4430932]}},{"type":"Feature","properties":{"addr:city":"Ciudad de M\u00e9xico","addr:housenumber":"32","addr:postcode":"06400","addr:street":"Avenida Insurgentes Centro","amenity":"bar","name":"El Abad"},"geometry":{"type":"Point","coordinates":[-99.1548671,19.4429288]}},{"type":"Feature","properties":{"addr:city":"Ciudad de M\u00e9xico","addr:housenumber":"70","addr:postcode":"06400","addr:street":"Avenida Insurgentes Centro","amenity":"restaurant","name":"Sanborns","website":"https:\/\/www.sanborns.com.mx"},"geometry":{"type":"Point","coordinates":[-99.1548992,19.4426128]}},{"type":"Feature","properties":{"addr:city":"Ciudad de M\u00e9xico","addr:housenumber":"70","addr:postcode":"06400","addr:street":"Avenida Insurgentes Centro","amenity":"bar","name":"Sanborns","website":"https:\/\/www.sanborns.com.mx"},"geometry":{"type":"Point","coordinates":[-99.1549367,19.4424887]}},{"type":"Feature","properties":{"addr:city":"Ciudad de M\u00e9xico","addr:housenumber":"70","addr:postcode":"06400","addr:street":"Avenida Insurgentes Centro","amenity":"bank","name":"Inbursa"},"geometry":{"type":"Point","coordinates":[-99.15502,19.4426329]}},{"type":"Feature","properties":{"amenity":"atm","operator":"Inbursa"},"geometry":{"type":"Point","coordinates":[-99.1550281,19.4425722]}},{"type":"Feature","properties":{"amenity":"bank","brand":"Santander","brand:wikidata":"Q5835668","brand:wikipedia":"en:Santander Bank","name":"Santander"},"geometry":{"type":"Point","coordinates":[-99.1524716,19.4483213]}},{"type":"Feature","properties":{"amenity":"atm","operator":"Banamex"},"geometry":{"type":"Point","coordinates":[-99.1518228,19.4480732]}},{"type":"Feature","properties":{"amenity":"bank","brand":"Bancomer","brand:wikidata":"Q2876794","brand:wikipedia":"en:BBVA Bancomer","name":"Bancomer","operator":"BBVA","operator:wikidata":"Q806189","operator:wikipedia":"de:Banco Bilbao Vizcaya Argentaria"},"geometry":{"type":"Point","coordinates":[-99.1525092,19.4480077]}},{"type":"Feature","properties":{"amenity":"atm","cash_in":"yes","network":"BBVA","operator":"BBVA"},"geometry":{"type":"Point","coordinates":[-99.1523483,19.4480026]}},{"type":"Feature","properties":{"amenity":"bank","brand":"Banamex","brand:wikidata":"Q749474","brand:wikipedia":"en:Grupo Financiero Banamex","name":"Banamex","official_name":"Grupo Financiero Banamex","official_name:en":"Banamex Financial Group","official_name:es":"Grupo Financiero Banamex"},"geometry":{"type":"Point","coordinates":[-99.1516726,19.4480934]}},{"type":"Feature","properties":{"amenity":"atm","operator":"Santander"},"geometry":{"type":"Point","coordinates":[-99.1524824,19.4481491]}},{"type":"Feature","properties":{"amenity":"restaurant","name":"Wings"},"geometry":{"type":"Point","coordinates":[-99.1517398,19.447763]}},{"type":"Feature","properties":{"amenity":"fast_food","name":"Carl\u00b4s Jr."},"geometry":{"type":"Point","coordinates":[-99.152359,19.4476334]}},{"type":"Feature","properties":{"amenity":"restaurant","cuisine":"sushi","name":"Sushi Roll"},"geometry":{"type":"Point","coordinates":[-99.1516404,19.4487409]}},{"type":"Feature","properties":{"amenity":"vending_machine","name":"Mac Store"},"geometry":{"type":"Point","coordinates":[-99.1516726,19.4478759]}},{"type":"Feature","properties":{"amenity":"restaurant","name":"Gino\u2019s Ristorante"},"geometry":{"type":"Point","coordinates":[-99.1515975,19.449095]}},{"type":"Feature","properties":{"addr:city":"Ciudad de M\u00e9xico","addr:housenumber":"132","addr:postcode":"06400","addr:street":"Jaime Torres Bodet","amenity":"school","name":"Escuela Primaria Pensador Mexicano"},"geometry":{"type":"Point","coordinates":[-99.1580675,19.4477433]}},{"type":"Feature","properties":{"amenity":"hospital","emergency":"no","name":"Laboratorio M\u00e9dico del Chopo"},"geometry":{"type":"Point","coordinates":[-99.1555081,19.4463572]}},{"type":"Feature","properties":{"addr:city":"Ciudad de M\u00e9xico","addr:housenumber":"117","addr:postcode":"06400","addr:street":"Dr. Enrique Gonz\u00e1lez Mart\u00ednez","amenity":"restaurant","cuisine":"japanese","name":"Cafe King"},"geometry":{"type":"Point","coordinates":[-99.155476,19.4464861]}},{"type":"Feature","properties":{"amenity":"fast_food","name":"KFC"},"geometry":{"type":"Point","coordinates":[-99.1530379,19.4440576]}},{"type":"Feature","properties":{"amenity":"fountain"},"geometry":{"type":"Point","coordinates":[-99.1565903,19.4491577]}},{"type":"Feature","properties":{"amenity":"fountain"},"geometry":{"type":"Point","coordinates":[-99.1572356,19.4492829]}},{"type":"Feature","properties":{"amenity":"hospital","name":"Centro Comunitario de Salud Mental Cuauht\u00e9moc"},"geometry":{"type":"Point","coordinates":[-99.1551947,19.4474277]}},{"type":"Feature","properties":{"amenity":"fast_food","name":"Subway"},"geometry":{"type":"Point","coordinates":[-99.1530579,19.4431447]}},{"type":"Feature","properties":{"amenity":"parking","name":"Wallmart"},"geometry":{"type":"Point","coordinates":[-99.1538518,19.4435797]}},{"type":"Feature","properties":{"amenity":"bus_station","name":"Metrobus Linea 1 y 3"},"geometry":{"type":"Point","coordinates":[-99.1517758,19.4462354]}},{"type":"Feature","properties":{"amenity":"bus_station","name":"Metrobus Linea 1 y 3"},"geometry":{"type":"Point","coordinates":[-99.1521633,19.4458497]}},{"type":"Feature","properties":{"amenity":"police","name":"SSP"},"geometry":{"type":"Point","coordinates":[-99.1576518,19.4427456]}},{"type":"Feature","properties":{"amenity":"fast_food","cuisine":"ice_cream","name":"Nieves La Michoacana"},"geometry":{"type":"Point","coordinates":[-99.1560854,19.4449156]}},{"type":"Feature","properties":{"amenity":"fast_food","cuisine":"ice_cream","name":"Nieves La Michoacana"},"geometry":{"type":"Point","coordinates":[-99.1565146,19.4484995]}},{"type":"Feature","properties":{"amenity":"restaurant","cuisine":"german","name":"Pepes"},"geometry":{"type":"Point","coordinates":[-99.1532369,19.4477596]}},{"type":"Feature","properties":{"amenity":"restaurant","name":"Di-Alex Pastes"},"geometry":{"type":"Point","coordinates":[-99.1553833,19.4481696]}},{"type":"Feature","properties":{"amenity":"restaurant","name":"La Santa Maria"},"geometry":{"type":"Point","coordinates":[-99.1559511,19.4486909]}},{"type":"Feature","properties":{"crossing":"traffic_signals","highway":"crossing","traffic_signals:sound":"no","traffic_signals:vibration":"no"},"geometry":{"type":"Point","coordinates":[-99.1531011,19.4464366]}},{"type":"Feature","properties":{"crossing":"traffic_signals","highway":"crossing","traffic_signals:sound":"no","traffic_signals:vibration":"no"},"geometry":{"type":"Point","coordinates":[-99.1531524,19.4461803]}},{"type":"Feature","properties":{"addr:city":"Ciudad de M\u00e9xico","addr:postcode":"06400","addr:street":"Calle Dr. Enrique Gonz\u00e1lez Mart\u00ednez","amenity":"restaurant","cuisine":"regional","name":"Chopo's","opening_hours":"8:00-22:00","outdoor_seating":"yes"},"geometry":{"type":"Point","coordinates":[-99.1553317,19.4480528]}},{"type":"Feature","properties":{"addr:city":"Ciudad de M\u00e9xico","addr:housenumber":"115","addr:postcode":"06400","addr:street":"Jaime Torres Bodet","amenity":"cafe","cuisine":"coffee_shop","name":"Bodet Bistro","outdoor_seating":"yes"},"geometry":{"type":"Point","coordinates":[-99.1580046,19.4467488]}},{"type":"Feature","properties":{"amenity":"drinking_water"},"geometry":{"type":"Point","coordinates":[-99.1570766,19.442944]}},{"type":"Feature","properties":{"amenity":"fast_food","cuisine":"chicken"},"geometry":{"type":"Point","coordinates":[-99.1575929,19.4451748]}},{"type":"Feature","properties":{"amenity":"restaurant","cuisine":"chinese"},"geometry":{"type":"Point","coordinates":[-99.1517308,19.4479783]}},{"type":"Feature","properties":{"amenity":"fast_food","brand":"McDonald's","brand:wikidata":"Q38076","brand:wikipedia":"en:McDonald's","cuisine":"burger","name":"McDonald's","takeaway":"yes"},"geometry":{"type":"Point","coordinates":[-99.1517537,19.4480475]}},{"type":"Feature","properties":{"amenity":"drinking_water"},"geometry":{"type":"Point","coordinates":[-99.1569217,19.4488028]}},{"type":"Feature","properties":{"addr:city":"Ciudad de M\u00e9xico","addr:housenumber":"112 C","addr:postcode":"06400","addr:street":"Calle Santa Mar\u00eda Ribera","amenity":"restaurant","cuisine":"sandwich;coffee_shop","name":"La Galeterie","opening_hours":"Mo-Sa 08:00-23:00","phone":"+52 55 5541 4541"},"geometry":{"type":"Point","coordinates":[-99.1575096,19.4467133]}},{"type":"Feature","properties":{"amenity":"restaurant","cuisine":"regional;mexican","internet_access":"wlan","name":"Comixcal"},"geometry":{"type":"Point","coordinates":[-99.1563928,19.4484734]}},{"type":"Feature","properties":{"amenity":"restaurant","name":"Tacos Gus","opening_hours":"Mo-Fr 08:00-17:30; Sa 08:00-14:00"},"geometry":{"type":"Point","coordinates":[-99.1508075,19.4430075]}},{"type":"Feature","properties":{"crossing":"traffic_signals","highway":"crossing","traffic_signals:sound":"no","traffic_signals:vibration":"no"},"geometry":{"type":"Point","coordinates":[-99.1530343,19.4464879]}},{"type":"Feature","properties":{"highway":"crossing"},"geometry":{"type":"Point","coordinates":[-99.153017,19.4466105]}},{"type":"Feature","properties":{"crossing":"traffic_signals","highway":"traffic_signals"},"geometry":{"type":"Point","coordinates":[-99.1529189,19.4474736]}},{"type":"Feature","properties":{"crossing":"traffic_signals","highway":"traffic_signals"},"geometry":{"type":"Point","coordinates":[-99.1529928,19.447486]}},{"type":"Feature","properties":{"crossing":"traffic_signals","highway":"traffic_signals"},"geometry":{"type":"Point","coordinates":[-99.1530896,19.4475044]}},{"type":"Feature","properties":{"amenity":"restaurant","name":"Rio Sella"},"geometry":{"type":"Point","coordinates":[-99.1551384,19.4483544]}},{"type":"Feature","properties":{"amenity":"restaurant","name":"La Casa Rosa"},"geometry":{"type":"Point","coordinates":[-99.1553774,19.448361]}},{"type":"Feature","properties":{"amenity":"cafe","name":"Camino a Comala: Caf\u00e9 de especialidad"},"geometry":{"type":"Point","coordinates":[-99.1550189,19.4428996]}},{"type":"Feature","properties":{"crossing":"traffic_signals","highway":"crossing","traffic_signals:sound":"no","traffic_signals:vibration":"no"},"geometry":{"type":"Point","coordinates":[-99.1532835,19.4464659]}},{"type":"Feature","properties":{"crossing":"traffic_signals","highway":"crossing","traffic_signals:sound":"no","traffic_signals:vibration":"no"},"geometry":{"type":"Point","coordinates":[-99.1530764,19.4462979]}},{"type":"Feature","properties":{"crossing":"traffic_signals","highway":"crossing","traffic_signals:sound":"no","traffic_signals:vibration":"no"},"geometry":{"type":"Point","coordinates":[-99.153249,19.4461979]}},{"type":"Feature","properties":{"crossing":"traffic_signals","highway":"crossing","traffic_signals:sound":"no","traffic_signals:vibration":"no"},"geometry":{"type":"Point","coordinates":[-99.1533333,19.4462132]}},{"type":"Feature","properties":{"crossing":"traffic_signals","crossing:island":"yes","highway":"crossing","traffic_signals:sound":"no","traffic_signals:vibration":"no"},"geometry":{"type":"Point","coordinates":[-99.1531689,19.4464454]}},{"type":"Feature","properties":{"amenity":"atm","cash_in":"yes","network":"BBVA","operator":"BBVA"},"geometry":{"type":"Point","coordinates":[-99.1530902,19.4434232]}},{"type":"Feature","properties":{"crossing":"traffic_signals","highway":"crossing"},"geometry":{"type":"Point","coordinates":[-99.1525737,19.4461206]}},{"type":"Feature","properties":{"crossing":"traffic_signals","highway":"traffic_signals"},"geometry":{"type":"Point","coordinates":[-99.1525569,19.4462087]}},{"type":"Feature","properties":{"crossing":"traffic_signals","highway":"crossing"},"geometry":{"type":"Point","coordinates":[-99.152513,19.4464536]}},{"type":"Feature","properties":{"crossing":"traffic_signals","highway":"crossing"},"geometry":{"type":"Point","coordinates":[-99.152504,19.4464976]}},{"type":"Feature","properties":{"amenity":"restaurant","cuisine":"peruvian","name":"La Fr\u00e1gula"},"geometry":{"type":"Point","coordinates":[-99.1579959,19.4490659]}}]}